zip,Zipcode name,City,State,County Name
61410,"ABINGDON, IL",ABINGDON,IL,KNOX
61411,"ADAIR, IL",ADAIR,IL,MCDONOUGH
62214,"ADDIEVILLE, IL",ADDIEVILLE,IL,WASHINGTON
60101,"ADDISON, IL",ADDISON,IL,DUPAGE
61230,"ALBANY, IL",ALBANY,IL,WHITESIDE
62215,"ALBERS, IL",ALBERS,IL,CLINTON
62806,"ALBION, IL",ALBION,IL,EDWARDS
60001,"ALDEN, IL",ALDEN,IL,MCHENRY
61231,"ALEDO, IL",ALEDO,IL,MERCER
62601,"ALEXANDER, IL",ALEXANDER,IL,MORGAN
61412,"ALEXIS, IL",ALEXIS,IL,MERCER
60102,"ALGONQUIN, IL",ALGONQUIN,IL,MCHENRY
62001,"ALHAMBRA, IL",ALHAMBRA,IL,MADISON
62410,"ALLENDALE, IL",ALLENDALE,IL,WABASH
61810,"ALLERTON, IL",ALLERTON,IL,VERMILION
62807,"ALMA, IL",ALMA,IL,MARION
61413,"ALPHA, IL",ALPHA,IL,HENRY
62610,"ALSEY, IL",ALSEY,IL,SCOTT
60803,"ALSIP, IL",ALSIP,IL,COOK
62411,"ALTAMONT, IL",ALTAMONT,IL,EFFINGHAM
62905,"ALTO PASS, IL",ALTO PASS,IL,UNION
62002,"ALTON, IL",ALTON,IL,MADISON
61414,"ALTONA, IL",ALTONA,IL,KNOX
61811,"ALVIN, IL",ALVIN,IL,VERMILION
61310,"AMBOY, IL",AMBOY,IL,LEE
61720,"ANCHOR, IL",ANCHOR,IL,MCLEAN
61232,"ANDALUSIA, IL",ANDALUSIA,IL,ROCK ISLAND
61233,"ANDOVER, IL",ANDOVER,IL,HENRY
62906,"ANNA, IL",ANNA,IL,UNION
62413,"ANNAPOLIS, IL",ANNAPOLIS,IL,CRAWFORD
61234,"ANNAWAN, IL",ANNAWAN,IL,HENRY
60002,"ANTIOCH, IL",ANTIOCH,IL,LAKE
61001,"APPLE RIVER, IL",APPLE RIVER,IL,JO DAVIESS
61910,"ARCOLA, IL",ARCOLA,IL,DOUGLAS
62611,"ARENZVILLE, IL",ARENZVILLE,IL,CASS
62501,"ARGENTA, IL",ARGENTA,IL,MACON
61312,"ARLINGTON, IL",ARLINGTON,IL,BUREAU
60004,"ARLINGTON HEIGHTS, IL",ARLINGTON HEIGHTS,IL,COOK
60005,"ARLINGTON HEIGHTS, IL",ARLINGTON HEIGHTS,IL,COOK
60006,"ARLINGTON HEIGHTS, IL",ARLINGTON HEIGHTS,IL,COOK
61721,"ARMINGTON, IL",ARMINGTON,IL,TAZEWELL
61812,"ARMSTRONG, IL",ARMSTRONG,IL,VERMILION
60910,"AROMA PARK, IL",AROMA PARK,IL,KANKAKEE
61722,"ARROWSMITH, IL",ARROWSMITH,IL,MCLEAN
61911,"ARTHUR, IL",ARTHUR,IL,DOUGLAS
60911,"ASHKUM, IL",ASHKUM,IL,IROQUOIS
62612,"ASHLAND, IL",ASHLAND,IL,CASS
62808,"ASHLEY, IL",ASHLEY,IL,WASHINGTON
61912,"ASHMORE, IL",ASHMORE,IL,COLES
61006,"ASHTON, IL",ASHTON,IL,LEE
62510,"ASSUMPTION, IL",ASSUMPTION,IL,CHRISTIAN
61501,"ASTORIA, IL",ASTORIA,IL,FULTON
62613,"ATHENS, IL",ATHENS,IL,MENARD
61235,"ATKINSON, IL",ATKINSON,IL,HENRY
61723,"ATLANTA, IL",ATLANTA,IL,LOGAN
61913,"ATWOOD, IL",ATWOOD,IL,DOUGLAS
62615,"AUBURN, IL",AUBURN,IL,SANGAMON
62311,"AUGUSTA, IL",AUGUSTA,IL,HANCOCK
60502,"AURORA, IL",AURORA,IL,DUPAGE
60504,"AURORA, IL",AURORA,IL,DUPAGE
60598,"AURORA, IL",AURORA,IL,DUPAGE
60505,"AURORA, IL",AURORA,IL,KANE
60506,"AURORA, IL",AURORA,IL,KANE
60507,"AURORA, IL",AURORA,IL,KANE
60503,"AURORA, IL",AURORA,IL,WILL
62907,"AVA, IL",AVA,IL,JACKSON
62216,"AVISTON, IL",AVISTON,IL,CLINTON
61415,"AVON, IL",AVON,IL,FULTON
61007,"BAILEYVILLE, IL",BAILEYVILLE,IL,OGLE
62217,"BALDWIN, IL",BALDWIN,IL,RANDOLPH
62809,"BARNHILL, IL",BARNHILL,IL,WAYNE
60010,"BARRINGTON, IL",BARRINGTON,IL,LAKE
60011,"BARRINGTON, IL",BARRINGTON,IL,LAKE
62312,"BARRY, IL",BARRY,IL,PIKE
62218,"BARTELSO, IL",BARTELSO,IL,CLINTON
60103,"BARTLETT, IL",BARTLETT,IL,DUPAGE
62313,"BASCO, IL",BASCO,IL,HANCOCK
60510,"BATAVIA, IL",BATAVIA,IL,KANE
62006,"BATCHTOWN, IL",BATCHTOWN,IL,CALHOUN
62617,"BATH, IL",BATH,IL,MASON
62314,"BAYLIS, IL",BAYLIS,IL,PIKE
62618,"BEARDSTOWN, IL",BEARDSTOWN,IL,CASS
62512,"BEASON, IL",BEASON,IL,LOGAN
60912,"BEAVERVILLE, IL",BEAVERVILLE,IL,IROQUOIS
62219,"BECKEMEYER, IL",BECKEMEYER,IL,CLINTON
60499,"BEDFORD PARK, IL",BEDFORD PARK,IL,COOK
60401,"BEECHER, IL",BEECHER,IL,WILL
62414,"BEECHER CITY, IL",BEECHER CITY,IL,EFFINGHAM
62908,"BELKNAP, IL",BELKNAP,IL,JOHNSON
62810,"BELLE RIVE, IL",BELLE RIVE,IL,JEFFERSON
62220,"BELLEVILLE, IL",BELLEVILLE,IL,SAINT CLAIR
62221,"BELLEVILLE, IL",BELLEVILLE,IL,SAINT CLAIR
62222,"BELLEVILLE, IL",BELLEVILLE,IL,SAINT CLAIR
62223,"BELLEVILLE, IL",BELLEVILLE,IL,SAINT CLAIR
62226,"BELLEVILLE, IL",BELLEVILLE,IL,SAINT CLAIR
61724,"BELLFLOWER, IL",BELLFLOWER,IL,MCLEAN
62811,"BELLMONT, IL",BELLMONT,IL,WABASH
60104,"BELLWOOD, IL",BELLWOOD,IL,COOK
61008,"BELVIDERE, IL",BELVIDERE,IL,BOONE
61813,"BEMENT, IL",BEMENT,IL,PIATT
62009,"BENLD, IL",BENLD,IL,MACOUPIN
60105,"BENSENVILLE, IL",BENSENVILLE,IL,DUPAGE
60106,"BENSENVILLE, IL",BENSENVILLE,IL,DUPAGE
61516,"BENSON, IL",BENSON,IL,WOODFORD
62812,"BENTON, IL",BENTON,IL,FRANKLIN
60163,"BERKELEY, IL",BERKELEY,IL,COOK
61417,"BERWICK, IL",BERWICK,IL,WARREN
60402,"BERWYN, IL",BERWYN,IL,COOK
62010,"BETHALTO, IL",BETHALTO,IL,MADISON
61914,"BETHANY, IL",BETHANY,IL,MOULTRIE
60511,"BIG ROCK, IL",BIG ROCK,IL,KANE
61418,"BIGGSVILLE, IL",BIGGSVILLE,IL,HENDERSON
62011,"BINGHAM, IL",BINGHAM,IL,FAYETTE
61419,"BISHOP HILL, IL",BISHOP HILL,IL,HENRY
61814,"BISMARCK, IL",BISMARCK,IL,VERMILION
61313,"BLACKSTONE, IL",BLACKSTONE,IL,LIVINGSTON
61420,"BLANDINSVILLE, IL",BLANDINSVILLE,IL,MCDONOUGH
60108,"BLOOMINGDALE, IL",BLOOMINGDALE,IL,DUPAGE
61701,"BLOOMINGTON, IL",BLOOMINGTON,IL,MCLEAN
61702,"BLOOMINGTON, IL",BLOOMINGTON,IL,MCLEAN
61704,"BLOOMINGTON, IL",BLOOMINGTON,IL,MCLEAN
61705,"BLOOMINGTON, IL",BLOOMINGTON,IL,MCLEAN
61709,"BLOOMINGTON, IL",BLOOMINGTON,IL,MCLEAN
61710,"BLOOMINGTON, IL",BLOOMINGTON,IL,MCLEAN
61791,"BLOOMINGTON, IL",BLOOMINGTON,IL,MCLEAN
60406,"BLUE ISLAND, IL",BLUE ISLAND,IL,COOK
62513,"BLUE MOUND, IL",BLUE MOUND,IL,MACON
62622,"BLUFF SPRINGS, IL",BLUFF SPRINGS,IL,CASS
62621,"BLUFFS, IL",BLUFFS,IL,SCOTT
62814,"BLUFORD, IL",BLUFORD,IL,JEFFERSON
62909,"BOLES, IL",BOLES,IL,JOHNSON
60440,"BOLINGBROOK, IL",BOLINGBROOK,IL,WILL
60490,"BOLINGBROOK, IL",BOLINGBROOK,IL,WILL
61815,"BONDVILLE, IL",BONDVILLE,IL,CHAMPAIGN
62815,"BONE GAP, IL",BONE GAP,IL,EDWARDS
60913,"BONFIELD, IL",BONFIELD,IL,KANKAKEE
62816,"BONNIE, IL",BONNIE,IL,JEFFERSON
62514,"BOODY, IL",BOODY,IL,MACON
60914,"BOURBONNAIS, IL",BOURBONNAIS,IL,KANKAKEE
62316,"BOWEN, IL",BOWEN,IL,HANCOCK
60407,"BRACEVILLE, IL",BRACEVILLE,IL,GRUNDY
61421,"BRADFORD, IL",BRADFORD,IL,STARK
60915,"BRADLEY, IL",BRADLEY,IL,KANKAKEE
60408,"BRAIDWOOD, IL",BRAIDWOOD,IL,WILL
62230,"BREESE, IL",BREESE,IL,CLINTON
62417,"BRIDGEPORT, IL",BRIDGEPORT,IL,LAWRENCE
60455,"BRIDGEVIEW, IL",BRIDGEVIEW,IL,COOK
62012,"BRIGHTON, IL",BRIGHTON,IL,MACOUPIN
61517,"BRIMFIELD, IL",BRIMFIELD,IL,PEORIA
60512,"BRISTOL, IL",BRISTOL,IL,KENDALL
61816,"BROADLANDS, IL",BROADLANDS,IL,CHAMPAIGN
60155,"BROADVIEW, IL",BROADVIEW,IL,COOK
61917,"BROCTON, IL",BROCTON,IL,EDGAR
60513,"BROOKFIELD, IL",BROOKFIELD,IL,COOK
62910,"BROOKPORT, IL",BROOKPORT,IL,MASSAC
62817,"BROUGHTON, IL",BROUGHTON,IL,HAMILTON
62624,"BROWNING, IL",BROWNING,IL,SCHUYLER
62818,"BROWNS, IL",BROWNS,IL,EDWARDS
62418,"BROWNSTOWN, IL",BROWNSTOWN,IL,FAYETTE
62013,"BRUSSELS, IL",BRUSSELS,IL,CALHOUN
61519,"BRYANT, IL",BRYANT,IL,FULTON
60917,"BUCKINGHAM, IL",BUCKINGHAM,IL,KANKAKEE
60918,"BUCKLEY, IL",BUCKLEY,IL,IROQUOIS
62819,"BUCKNER, IL",BUCKNER,IL,FRANKLIN
61314,"BUDA, IL",BUDA,IL,BUREAU
62515,"BUFFALO, IL",BUFFALO,IL,SANGAMON
60089,"BUFFALO GROVE, IL",BUFFALO GROVE,IL,LAKE
61237,"BUFFALO PRAIRIE, IL",BUFFALO PRAIRIE,IL,ROCK ISLAND
62517,"BULPITT, IL",BULPITT,IL,CHRISTIAN
62912,"BUNCOMBE, IL",BUNCOMBE,IL,JOHNSON
62014,"BUNKER HILL, IL",BUNKER HILL,IL,MACOUPIN
60459,"BURBANK, IL",BURBANK,IL,COOK
61315,"BUREAU, IL",BUREAU,IL,BUREAU
60109,"BURLINGTON, IL",BURLINGTON,IL,KANE
62820,"BURNT PRAIRIE, IL",BURNT PRAIRIE,IL,WHITE
61422,"BUSHNELL, IL",BUSHNELL,IL,MCDONOUGH
62015,"BUTLER, IL",BUTLER,IL,MONTGOMERY
61010,"BYRON, IL",BYRON,IL,OGLE
60919,"CABERY, IL",CABERY,IL,FORD
62914,"CAIRO, IL",CAIRO,IL,ALEXANDER
61011,"CALEDONIA, IL",CALEDONIA,IL,BOONE
62419,"CALHOUN, IL",CALHOUN,IL,RICHLAND
60409,"CALUMET CITY, IL",CALUMET CITY,IL,COOK
61919,"CAMARGO, IL",CAMARGO,IL,DOUGLAS
62915,"CAMBRIA, IL",CAMBRIA,IL,WILLIAMSON
61238,"CAMBRIDGE, IL",CAMBRIDGE,IL,HENRY
62319,"CAMDEN, IL",CAMDEN,IL,SCHUYLER
61423,"CAMERON, IL",CAMERON,IL,WARREN
61424,"CAMP GROVE, IL",CAMP GROVE,IL,MARSHALL
62320,"CAMP POINT, IL",CAMP POINT,IL,ADAMS
62916,"CAMPBELL HILL, IL",CAMPBELL HILL,IL,JACKSON
60920,"CAMPUS, IL",CAMPUS,IL,LIVINGSTON
61520,"CANTON, IL",CANTON,IL,FULTON
62625,"CANTRALL, IL",CANTRALL,IL,SANGAMON
61012,"CAPRON, IL",CAPRON,IL,BOONE
61239,"CARBON CLIFF, IL",CARBON CLIFF,IL,ROCK ISLAND
62901,"CARBONDALE, IL",CARBONDALE,IL,JACKSON
62902,"CARBONDALE, IL",CARBONDALE,IL,JACKSON
62903,"CARBONDALE, IL",CARBONDALE,IL,JACKSON
62626,"CARLINVILLE, IL",CARLINVILLE,IL,MACOUPIN
61725,"CARLOCK, IL",CARLOCK,IL,MCLEAN
62231,"CARLYLE, IL",CARLYLE,IL,CLINTON
61425,"CARMAN, IL",CARMAN,IL,HENDERSON
62821,"CARMI, IL",CARMI,IL,WHITE
60116,"CAROL STREAM, IL",CAROL STREAM,IL,DUPAGE
60128,"CAROL STREAM, IL",CAROL STREAM,IL,DUPAGE
60132,"CAROL STREAM, IL",CAROL STREAM,IL,DUPAGE
60188,"CAROL STREAM, IL",CAROL STREAM,IL,DUPAGE
60197,"CAROL STREAM, IL",CAROL STREAM,IL,DUPAGE
60199,"CAROL STREAM, IL",CAROL STREAM,IL,DUPAGE
60110,"CARPENTERSVILLE, IL",CARPENTERSVILLE,IL,KANE
62917,"CARRIER MILLS, IL",CARRIER MILLS,IL,SALINE
62016,"CARROLLTON, IL",CARROLLTON,IL,GREENE
62918,"CARTERVILLE, IL",CARTERVILLE,IL,WILLIAMSON
62321,"CARTHAGE, IL",CARTHAGE,IL,HANCOCK
60013,"CARY, IL",CARY,IL,MCHENRY
62420,"CASEY, IL",CASEY,IL,CLARK
62232,"CASEYVILLE, IL",CASEYVILLE,IL,SAINT CLAIR
61817,"CATLIN, IL",CATLIN,IL,VERMILION
62919,"CAVE IN ROCK, IL",CAVE IN ROCK,IL,HARDIN
61013,"CEDARVILLE, IL",CEDARVILLE,IL,STEPHENSON
62801,"CENTRALIA, IL",CENTRALIA,IL,MARION
61818,"CERRO GORDO, IL",CERRO GORDO,IL,PIATT
61014,"CHADWICK, IL",CHADWICK,IL,CARROLL
62323,"CHAMBERSBURG, IL",CHAMBERSBURG,IL,PIKE
61820,"CHAMPAIGN, IL",CHAMPAIGN,IL,CHAMPAIGN
61821,"CHAMPAIGN, IL",CHAMPAIGN,IL,CHAMPAIGN
61822,"CHAMPAIGN, IL",CHAMPAIGN,IL,CHAMPAIGN
61824,"CHAMPAIGN, IL",CHAMPAIGN,IL,CHAMPAIGN
61825,"CHAMPAIGN, IL",CHAMPAIGN,IL,CHAMPAIGN
61826,"CHAMPAIGN, IL",CHAMPAIGN,IL,CHAMPAIGN
61015,"CHANA, IL",CHANA,IL,OGLE
62627,"CHANDLERVILLE, IL",CHANDLERVILLE,IL,CASS
60410,"CHANNAHON, IL",CHANNAHON,IL,WILL
62628,"CHAPIN, IL",CHAPIN,IL,MORGAN
61920,"CHARLESTON, IL",CHARLESTON,IL,COLES
62629,"CHATHAM, IL",CHATHAM,IL,SANGAMON
60921,"CHATSWORTH, IL",CHATSWORTH,IL,LIVINGSTON
60922,"CHEBANSE, IL",CHEBANSE,IL,IROQUOIS
61726,"CHENOA, IL",CHENOA,IL,MCLEAN
61317,"CHERRY, IL",CHERRY,IL,BUREAU
61016,"CHERRY VALLEY, IL",CHERRY VALLEY,IL,WINNEBAGO
62233,"CHESTER, IL",CHESTER,IL,RANDOLPH
62630,"CHESTERFIELD, IL",CHESTERFIELD,IL,MACOUPIN
62518,"CHESTNUT, IL",CHESTNUT,IL,LOGAN
60290,"CHICAGO, IL",CHICAGO,IL,COOK
60601,"CHICAGO, IL",CHICAGO,IL,COOK
60602,"CHICAGO, IL",CHICAGO,IL,COOK
60603,"CHICAGO, IL",CHICAGO,IL,COOK
60604,"CHICAGO, IL",CHICAGO,IL,COOK
60605,"CHICAGO, IL",CHICAGO,IL,COOK
60606,"CHICAGO, IL",CHICAGO,IL,COOK
60607,"CHICAGO, IL",CHICAGO,IL,COOK
60608,"CHICAGO, IL",CHICAGO,IL,COOK
60609,"CHICAGO, IL",CHICAGO,IL,COOK
60610,"CHICAGO, IL",CHICAGO,IL,COOK
60611,"CHICAGO, IL",CHICAGO,IL,COOK
60612,"CHICAGO, IL",CHICAGO,IL,COOK
60613,"CHICAGO, IL",CHICAGO,IL,COOK
60614,"CHICAGO, IL",CHICAGO,IL,COOK
60615,"CHICAGO, IL",CHICAGO,IL,COOK
60616,"CHICAGO, IL",CHICAGO,IL,COOK
60617,"CHICAGO, IL",CHICAGO,IL,COOK
60618,"CHICAGO, IL",CHICAGO,IL,COOK
60619,"CHICAGO, IL",CHICAGO,IL,COOK
60620,"CHICAGO, IL",CHICAGO,IL,COOK
60621,"CHICAGO, IL",CHICAGO,IL,COOK
60622,"CHICAGO, IL",CHICAGO,IL,COOK
60623,"CHICAGO, IL",CHICAGO,IL,COOK
60624,"CHICAGO, IL",CHICAGO,IL,COOK
60625,"CHICAGO, IL",CHICAGO,IL,COOK
60626,"CHICAGO, IL",CHICAGO,IL,COOK
60628,"CHICAGO, IL",CHICAGO,IL,COOK
60629,"CHICAGO, IL",CHICAGO,IL,COOK
60630,"CHICAGO, IL",CHICAGO,IL,COOK
60631,"CHICAGO, IL",CHICAGO,IL,COOK
60632,"CHICAGO, IL",CHICAGO,IL,COOK
60633,"CHICAGO, IL",CHICAGO,IL,COOK
60634,"CHICAGO, IL",CHICAGO,IL,COOK
60636,"CHICAGO, IL",CHICAGO,IL,COOK
60637,"CHICAGO, IL",CHICAGO,IL,COOK
60638,"CHICAGO, IL",CHICAGO,IL,COOK
60639,"CHICAGO, IL",CHICAGO,IL,COOK
60640,"CHICAGO, IL",CHICAGO,IL,COOK
60641,"CHICAGO, IL",CHICAGO,IL,COOK
60642,"CHICAGO, IL",CHICAGO,IL,COOK
60643,"CHICAGO, IL",CHICAGO,IL,COOK
60644,"CHICAGO, IL",CHICAGO,IL,COOK
60645,"CHICAGO, IL",CHICAGO,IL,COOK
60646,"CHICAGO, IL",CHICAGO,IL,COOK
60647,"CHICAGO, IL",CHICAGO,IL,COOK
60649,"CHICAGO, IL",CHICAGO,IL,COOK
60651,"CHICAGO, IL",CHICAGO,IL,COOK
60652,"CHICAGO, IL",CHICAGO,IL,COOK
60653,"CHICAGO, IL",CHICAGO,IL,COOK
60654,"CHICAGO, IL",CHICAGO,IL,COOK
60655,"CHICAGO, IL",CHICAGO,IL,COOK
60656,"CHICAGO, IL",CHICAGO,IL,COOK
60657,"CHICAGO, IL",CHICAGO,IL,COOK
60659,"CHICAGO, IL",CHICAGO,IL,COOK
60660,"CHICAGO, IL",CHICAGO,IL,COOK
60661,"CHICAGO, IL",CHICAGO,IL,COOK
60664,"CHICAGO, IL",CHICAGO,IL,COOK
60666,"CHICAGO, IL",CHICAGO,IL,COOK
60669,"CHICAGO, IL",CHICAGO,IL,COOK
60670,"CHICAGO, IL",CHICAGO,IL,COOK
60674,"CHICAGO, IL",CHICAGO,IL,COOK
60675,"CHICAGO, IL",CHICAGO,IL,COOK
60677,"CHICAGO, IL",CHICAGO,IL,COOK
60678,"CHICAGO, IL",CHICAGO,IL,COOK
60680,"CHICAGO, IL",CHICAGO,IL,COOK
60681,"CHICAGO, IL",CHICAGO,IL,COOK
60685,"CHICAGO, IL",CHICAGO,IL,COOK
60690,"CHICAGO, IL",CHICAGO,IL,COOK
60693,"CHICAGO, IL",CHICAGO,IL,COOK
60694,"CHICAGO, IL",CHICAGO,IL,COOK
60695,"CHICAGO, IL",CHICAGO,IL,COOK
60696,"CHICAGO, IL",CHICAGO,IL,COOK
60697,"CHICAGO, IL",CHICAGO,IL,COOK
60699,"CHICAGO, IL",CHICAGO,IL,COOK
60701,"CHICAGO, IL",CHICAGO,IL,COOK
60411,"CHICAGO HEIGHTS, IL",CHICAGO HEIGHTS,IL,COOK
60412,"CHICAGO HEIGHTS, IL",CHICAGO HEIGHTS,IL,COOK
60415,"CHICAGO RIDGE, IL",CHICAGO RIDGE,IL,COOK
61523,"CHILLICOTHE, IL",CHILLICOTHE,IL,PEORIA
61924,"CHRISMAN, IL",CHRISMAN,IL,EDGAR
62822,"CHRISTOPHER, IL",CHRISTOPHER,IL,FRANKLIN
60804,"CICERO, IL",CICERO,IL,COOK
61830,"CISCO, IL",CISCO,IL,PIATT
62823,"CISNE, IL",CISNE,IL,WAYNE
60924,"CISSNA PARK, IL",CISSNA PARK,IL,IROQUOIS
60111,"CLARE, IL",CLARE,IL,DEKALB
62421,"CLAREMONT, IL",CLAREMONT,IL,RICHLAND
60514,"CLARENDON HILLS, IL",CLARENDON HILLS,IL,DUPAGE
62824,"CLAY CITY, IL",CLAY CITY,IL,CLAY
62324,"CLAYTON, IL",CLAYTON,IL,ADAMS
60927,"CLIFTON, IL",CLIFTON,IL,IROQUOIS
61727,"CLINTON, IL",CLINTON,IL,DEWITT
60416,"COAL CITY, IL",COAL CITY,IL,GRUNDY
61240,"COAL VALLEY, IL",COAL VALLEY,IL,ROCK ISLAND
62325,"COATSBURG, IL",COATSBURG,IL,ADAMS
62920,"COBDEN, IL",COBDEN,IL,UNION
62825,"COELLO, IL",COELLO,IL,FRANKLIN
62017,"COFFEEN, IL",COFFEEN,IL,MONTGOMERY
62326,"COLCHESTER, IL",COLCHESTER,IL,MCDONOUGH
61728,"COLFAX, IL",COLFAX,IL,MCLEAN
62234,"COLLINSVILLE, IL",COLLINSVILLE,IL,MADISON
61831,"COLLISON, IL",COLLISON,IL,VERMILION
61241,"COLONA, IL",COLONA,IL,HENRY
62921,"COLP, IL",COLP,IL,WILLIAMSON
62236,"COLUMBIA, IL",COLUMBIA,IL,MONROE
62329,"COLUSA, IL",COLUSA,IL,HANCOCK
61318,"COMPTON, IL",COMPTON,IL,LEE
62631,"CONCORD, IL",CONCORD,IL,MORGAN
61729,"CONGERVILLE, IL",CONGERVILLE,IL,WOODFORD
61730,"COOKSVILLE, IL",COOKSVILLE,IL,MCLEAN
61242,"CORDOVA, IL",CORDOVA,IL,ROCK ISLAND
61319,"CORNELL, IL",CORNELL,IL,LIVINGSTON
62519,"CORNLAND, IL",CORNLAND,IL,LOGAN
60112,"CORTLAND, IL",CORTLAND,IL,DEKALB
62018,"COTTAGE HILLS, IL",COTTAGE HILLS,IL,MADISON
62237,"COULTERVILLE, IL",COULTERVILLE,IL,RANDOLPH
60478,"COUNTRY CLUB HILLS, IL",COUNTRY CLUB HILLS,IL,COOK
62422,"COWDEN, IL",COWDEN,IL,SHELBY
62922,"CREAL SPRINGS, IL",CREAL SPRINGS,IL,WILLIAMSON
60928,"CRESCENT CITY, IL",CRESCENT CITY,IL,IROQUOIS
60403,"CREST HILL, IL",CREST HILL,IL,WILL
60113,"CRESTON, IL",CRESTON,IL,OGLE
60417,"CRETE, IL",CRETE,IL,WILL
61610,"CREVE COEUR, IL",CREVE COEUR,IL,TAZEWELL
61731,"CROPSEY, IL",CROPSEY,IL,MCLEAN
62827,"CROSSVILLE, IL",CROSSVILLE,IL,WHITE
60012,"CRYSTAL LAKE, IL",CRYSTAL LAKE,IL,MCHENRY
60014,"CRYSTAL LAKE, IL",CRYSTAL LAKE,IL,MCHENRY
60039,"CRYSTAL LAKE, IL",CRYSTAL LAKE,IL,MCHENRY
61427,"CUBA, IL",CUBA,IL,FULTON
60929,"CULLOM, IL",CULLOM,IL,LIVINGSTON
62238,"CUTLER, IL",CUTLER,IL,PERRY
62923,"CYPRESS, IL",CYPRESS,IL,JOHNSON
61428,"DAHINDA, IL",DAHINDA,IL,KNOX
62828,"DAHLGREN, IL",DAHLGREN,IL,HAMILTON
61018,"DAKOTA, IL",DAKOTA,IL,STEPHENSON
62829,"DALE, IL",DALE,IL,HAMILTON
62330,"DALLAS CITY, IL",DALLAS CITY,IL,HANCOCK
61925,"DALTON CITY, IL",DALTON CITY,IL,MOULTRIE
61320,"DALZELL, IL",DALZELL,IL,BUREAU
61321,"DANA, IL",DANA,IL,LA SALLE
60930,"DANFORTH, IL",DANFORTH,IL,IROQUOIS
61732,"DANVERS, IL",DANVERS,IL,MCLEAN
61832,"DANVILLE, IL",DANVILLE,IL,VERMILION
61834,"DANVILLE, IL",DANVILLE,IL,VERMILION
60561,"DARIEN, IL",DARIEN,IL,DUPAGE
61019,"DAVIS, IL",DAVIS,IL,STEPHENSON
61020,"DAVIS JUNCTION, IL",DAVIS JUNCTION,IL,OGLE
62520,"DAWSON, IL",DAWSON,IL,SANGAMON
61839,"DE LAND, IL",DE LAND,IL,PIATT
62924,"DE SOTO, IL",DE SOTO,IL,JACKSON
62521,"DECATUR, IL",DECATUR,IL,MACON
62522,"DECATUR, IL",DECATUR,IL,MACON
62523,"DECATUR, IL",DECATUR,IL,MACON
62524,"DECATUR, IL",DECATUR,IL,MACON
62525,"DECATUR, IL",DECATUR,IL,MACON
62526,"DECATUR, IL",DECATUR,IL,MACON
61733,"DEER CREEK, IL",DEER CREEK,IL,TAZEWELL
61243,"DEER GROVE, IL",DEER GROVE,IL,WHITESIDE
60015,"DEERFIELD, IL",DEERFIELD,IL,LAKE
60115,"DEKALB, IL",DEKALB,IL,DEKALB
61734,"DELAVAN, IL",DELAVAN,IL,TAZEWELL
62423,"DENNISON, IL",DENNISON,IL,CLARK
61322,"DEPUE, IL",DEPUE,IL,BUREAU
60016,"DES PLAINES, IL",DES PLAINES,IL,COOK
60017,"DES PLAINES, IL",DES PLAINES,IL,COOK
60018,"DES PLAINES, IL",DES PLAINES,IL,COOK
60019,"DES PLAINES, IL",DES PLAINES,IL,COOK
61840,"DEWEY, IL",DEWEY,IL,CHAMPAIGN
61735,"DEWITT, IL",DEWITT,IL,DEWITT
62424,"DIETERICH, IL",DIETERICH,IL,EFFINGHAM
62530,"DIVERNON, IL",DIVERNON,IL,SANGAMON
62830,"DIX, IL",DIX,IL,JEFFERSON
61021,"DIXON, IL",DIXON,IL,LEE
60419,"DOLTON, IL",DOLTON,IL,COOK
62926,"DONGOLA, IL",DONGOLA,IL,UNION
62019,"DONNELLSON, IL",DONNELLSON,IL,MONTGOMERY
60931,"DONOVAN, IL",DONOVAN,IL,IROQUOIS
62021,"DORSEY, IL",DORSEY,IL,MADISON
61323,"DOVER, IL",DOVER,IL,BUREAU
62022,"DOW, IL",DOW,IL,JERSEY
62927,"DOWELL, IL",DOWELL,IL,JACKSON
60515,"DOWNERS GROVE, IL",DOWNERS GROVE,IL,DUPAGE
60516,"DOWNERS GROVE, IL",DOWNERS GROVE,IL,DUPAGE
61736,"DOWNS, IL",DOWNS,IL,MCLEAN
62831,"DU BOIS, IL",DU BOIS,IL,WASHINGTON
62832,"DU QUOIN, IL",DU QUOIN,IL,PERRY
62425,"DUNDAS, IL",DUNDAS,IL,RICHLAND
60118,"DUNDEE, IL",DUNDEE,IL,KANE
61524,"DUNFERMLINE, IL",DUNFERMLINE,IL,FULTON
61525,"DUNLAP, IL",DUNLAP,IL,PEORIA
62239,"DUPO, IL",DUPO,IL,SAINT CLAIR
61024,"DURAND, IL",DURAND,IL,WINNEBAGO
60420,"DWIGHT, IL",DWIGHT,IL,LIVINGSTON
62023,"EAGARVILLE, IL",EAGARVILLE,IL,MACOUPIN
60518,"EARLVILLE, IL",EARLVILLE,IL,LA SALLE
62024,"EAST ALTON, IL",EAST ALTON,IL,MADISON
62240,"EAST CARONDELET, IL",EAST CARONDELET,IL,SAINT CLAIR
61025,"EAST DUBUQUE, IL",EAST DUBUQUE,IL,JO DAVIESS
61430,"EAST GALESBURG, IL",EAST GALESBURG,IL,KNOX
60932,"EAST LYNN, IL",EAST LYNN,IL,VERMILION
61244,"EAST MOLINE, IL",EAST MOLINE,IL,ROCK ISLAND
61611,"EAST PEORIA, IL",EAST PEORIA,IL,TAZEWELL
61635,"EAST PEORIA, IL",EAST PEORIA,IL,TAZEWELL
62201,"EAST SAINT LOUIS, IL",EAST SAINT LOUIS,IL,SAINT CLAIR
62202,"EAST SAINT LOUIS, IL",EAST SAINT LOUIS,IL,SAINT CLAIR
62203,"EAST SAINT LOUIS, IL",EAST SAINT LOUIS,IL,SAINT CLAIR
62204,"EAST SAINT LOUIS, IL",EAST SAINT LOUIS,IL,SAINT CLAIR
62205,"EAST SAINT LOUIS, IL",EAST SAINT LOUIS,IL,SAINT CLAIR
62206,"EAST SAINT LOUIS, IL",EAST SAINT LOUIS,IL,SAINT CLAIR
62207,"EAST SAINT LOUIS, IL",EAST SAINT LOUIS,IL,SAINT CLAIR
62633,"EASTON, IL",EASTON,IL,MASON
62928,"EDDYVILLE, IL",EDDYVILLE,IL,POPE
61526,"EDELSTEIN, IL",EDELSTEIN,IL,PEORIA
62426,"EDGEWOOD, IL",EDGEWOOD,IL,EFFINGHAM
62531,"EDINBURG, IL",EDINBURG,IL,CHRISTIAN
61528,"EDWARDS, IL",EDWARDS,IL,PEORIA
62025,"EDWARDSVILLE, IL",EDWARDSVILLE,IL,MADISON
62026,"EDWARDSVILLE, IL",EDWARDSVILLE,IL,MADISON
62401,"EFFINGHAM, IL",EFFINGHAM,IL,EFFINGHAM
61738,"EL PASO, IL",EL PASO,IL,WOODFORD
60119,"ELBURN, IL",ELBURN,IL,KANE
62930,"ELDORADO, IL",ELDORADO,IL,SALINE
62027,"ELDRED, IL",ELDRED,IL,GREENE
61027,"ELEROY, IL",ELEROY,IL,STEPHENSON
60120,"ELGIN, IL",ELGIN,IL,KANE
60121,"ELGIN, IL",ELGIN,IL,KANE
60123,"ELGIN, IL",ELGIN,IL,KANE
60124,"ELGIN, IL",ELGIN,IL,KANE
60170,"ELGIN, IL",ELGIN,IL,KANE
61028,"ELIZABETH, IL",ELIZABETH,IL,JO DAVIESS
62931,"ELIZABETHTOWN, IL",ELIZABETHTOWN,IL,HARDIN
60007,"ELK GROVE VILLAGE, IL",ELK GROVE VILLAGE,IL,COOK
60009,"ELK GROVE VILLAGE, IL",ELK GROVE VILLAGE,IL,COOK
62634,"ELKHART, IL",ELKHART,IL,LOGAN
62932,"ELKVILLE, IL",ELKVILLE,IL,JACKSON
62833,"ELLERY, IL",ELLERY,IL,EDWARDS
60933,"ELLIOTT, IL",ELLIOTT,IL,FORD
62241,"ELLIS GROVE, IL",ELLIS GROVE,IL,RANDOLPH
61431,"ELLISVILLE, IL",ELLISVILLE,IL,FULTON
61737,"ELLSWORTH, IL",ELLSWORTH,IL,MCLEAN
60126,"ELMHURST, IL",ELMHURST,IL,DUPAGE
61529,"ELMWOOD, IL",ELMWOOD,IL,PEORIA
60707,"ELMWOOD PARK, IL",ELMWOOD PARK,IL,COOK
62028,"ELSAH, IL",ELSAH,IL,JERSEY
62334,"ELVASTON, IL",ELVASTON,IL,HANCOCK
62532,"ELWIN, IL",ELWIN,IL,MACON
60421,"ELWOOD, IL",ELWOOD,IL,WILL
62635,"EMDEN, IL",EMDEN,IL,LOGAN
60934,"EMINGTON, IL",EMINGTON,IL,LIVINGSTON
62933,"ENERGY, IL",ENERGY,IL,WILLIAMSON
62835,"ENFIELD, IL",ENFIELD,IL,WHITE
60519,"EOLA, IL",EOLA,IL,DUPAGE
62934,"EQUALITY, IL",EQUALITY,IL,GALLATIN
61250,"ERIE, IL",ERIE,IL,WHITESIDE
60129,"ESMOND, IL",ESMOND,IL,DEKALB
60935,"ESSEX, IL",ESSEX,IL,KANKAKEE
61530,"EUREKA, IL",EUREKA,IL,WOODFORD
60201,"EVANSTON, IL",EVANSTON,IL,COOK
60202,"EVANSTON, IL",EVANSTON,IL,COOK
60203,"EVANSTON, IL",EVANSTON,IL,COOK
60204,"EVANSTON, IL",EVANSTON,IL,COOK
60208,"EVANSTON, IL",EVANSTON,IL,COOK
62242,"EVANSVILLE, IL",EVANSVILLE,IL,RANDOLPH
60805,"EVERGREEN PARK, IL",EVERGREEN PARK,IL,COOK
62836,"EWING, IL",EWING,IL,FRANKLIN
61739,"FAIRBURY, IL",FAIRBURY,IL,LIVINGSTON
62837,"FAIRFIELD, IL",FAIRFIELD,IL,WAYNE
61841,"FAIRMOUNT, IL",FAIRMOUNT,IL,VERMILION
61432,"FAIRVIEW, IL",FAIRVIEW,IL,FULTON
62208,"FAIRVIEW HEIGHTS, IL",FAIRVIEW HEIGHTS,IL,SAINT CLAIR
62838,"FARINA, IL",FARINA,IL,FAYETTE
61842,"FARMER CITY, IL",FARMER CITY,IL,DEWITT
62533,"FARMERSVILLE, IL",FARMERSVILLE,IL,MONTGOMERY
61531,"FARMINGTON, IL",FARMINGTON,IL,FULTON
61251,"FENTON, IL",FENTON,IL,WHITESIDE
62336,"FERRIS, IL",FERRIS,IL,HANCOCK
61433,"FIATT, IL",FIATT,IL,FULTON
62031,"FIELDON, IL",FIELDON,IL,JERSEY
62032,"FILLMORE, IL",FILLMORE,IL,MONTGOMERY
62534,"FINDLAY, IL",FINDLAY,IL,SHELBY
61843,"FISHER, IL",FISHER,IL,CHAMPAIGN
61844,"FITHIAN, IL",FITHIAN,IL,VERMILION
61740,"FLANAGAN, IL",FLANAGAN,IL,LIVINGSTON
62427,"FLAT ROCK, IL",FLAT ROCK,IL,CRAWFORD
62839,"FLORA, IL",FLORA,IL,CLAY
60422,"FLOSSMOOR, IL",FLOSSMOOR,IL,COOK
61845,"FOOSLAND, IL",FOOSLAND,IL,CHAMPAIGN
61532,"FOREST CITY, IL",FOREST CITY,IL,MASON
60130,"FOREST PARK, IL",FOREST PARK,IL,COOK
61741,"FORREST, IL",FORREST,IL,LIVINGSTON
61030,"FORRESTON, IL",FORRESTON,IL,OGLE
62535,"FORSYTH, IL",FORSYTH,IL,MACON
60037,"FORT SHERIDAN, IL",FORT SHERIDAN,IL,LAKE
62338,"FOWLER, IL",FOWLER,IL,ADAMS
60020,"FOX LAKE, IL",FOX LAKE,IL,LAKE
60021,"FOX RIVER GROVE, IL",FOX RIVER GROVE,IL,MCHENRY
60423,"FRANKFORT, IL",FRANKFORT,IL,WILL
62638,"FRANKLIN, IL",FRANKLIN,IL,MORGAN
61031,"FRANKLIN GROVE, IL",FRANKLIN GROVE,IL,LEE
60131,"FRANKLIN PARK, IL",FRANKLIN PARK,IL,COOK
62243,"FREEBURG, IL",FREEBURG,IL,SAINT CLAIR
61032,"FREEPORT, IL",FREEPORT,IL,STEPHENSON
61252,"FULTON, IL",FULTON,IL,WHITESIDE
62244,"FULTS, IL",FULTS,IL,MONROE
62935,"GALATIA, IL",GALATIA,IL,SALINE
61036,"GALENA, IL",GALENA,IL,JO DAVIESS
61401,"GALESBURG, IL",GALESBURG,IL,KNOX
61402,"GALESBURG, IL",GALESBURG,IL,KNOX
61037,"GALT, IL",GALT,IL,WHITESIDE
61434,"GALVA, IL",GALVA,IL,HENRY
61038,"GARDEN PRAIRIE, IL",GARDEN PRAIRIE,IL,BOONE
60424,"GARDNER, IL",GARDNER,IL,GRUNDY
61928,"GAYS, IL",GAYS,IL,MOULTRIE
62842,"GEFF, IL",GEFF,IL,WAYNE
61254,"GENESEO, IL",GENESEO,IL,HENRY
60134,"GENEVA, IL",GENEVA,IL,KANE
60135,"GENOA, IL",GENOA,IL,DEKALB
61846,"GEORGETOWN, IL",GEORGETOWN,IL,VERMILION
61435,"GERLAW, IL",GERLAW,IL,WARREN
61039,"GERMAN VALLEY, IL",GERMAN VALLEY,IL,STEPHENSON
62245,"GERMANTOWN, IL",GERMANTOWN,IL,CLINTON
60936,"GIBSON CITY, IL",GIBSON CITY,IL,FORD
61847,"GIFFORD, IL",GIFFORD,IL,CHAMPAIGN
60136,"GILBERTS, IL",GILBERTS,IL,KANE
62033,"GILLESPIE, IL",GILLESPIE,IL,MACOUPIN
60938,"GILMAN, IL",GILMAN,IL,IROQUOIS
61436,"GILSON, IL",GILSON,IL,KNOX
62640,"GIRARD, IL",GIRARD,IL,MACOUPIN
61437,"GLADSTONE, IL",GLADSTONE,IL,HENDERSON
61533,"GLASFORD, IL",GLASFORD,IL,PEORIA
62034,"GLEN CARBON, IL",GLEN CARBON,IL,MADISON
60137,"GLEN ELLYN, IL",GLEN ELLYN,IL,DUPAGE
60138,"GLEN ELLYN, IL",GLEN ELLYN,IL,DUPAGE
62536,"GLENARM, IL",GLENARM,IL,SANGAMON
60022,"GLENCOE, IL",GLENCOE,IL,COOK
60139,"GLENDALE HEIGHTS, IL",GLENDALE HEIGHTS,IL,DUPAGE
60025,"GLENVIEW, IL",GLENVIEW,IL,COOK
60026,"GLENVIEW, IL",GLENVIEW,IL,COOK
60425,"GLENWOOD, IL",GLENWOOD,IL,COOK
62035,"GODFREY, IL",GODFREY,IL,MADISON
62938,"GOLCONDA, IL",GOLCONDA,IL,POPE
62339,"GOLDEN, IL",GOLDEN,IL,ADAMS
62036,"GOLDEN EAGLE, IL",GOLDEN EAGLE,IL,CALHOUN
62843,"GOLDEN GATE, IL",GOLDEN GATE,IL,WAYNE
60029,"GOLF, IL",GOLF,IL,COOK
61438,"GOOD HOPE, IL",GOOD HOPE,IL,MCDONOUGH
61742,"GOODFIELD, IL",GOODFIELD,IL,WOODFORD
60939,"GOODWINE, IL",GOODWINE,IL,IROQUOIS
62939,"GOREVILLE, IL",GOREVILLE,IL,JOHNSON
62940,"GORHAM, IL",GORHAM,IL,JACKSON
62037,"GRAFTON, IL",GRAFTON,IL,JERSEY
62941,"GRAND CHAIN, IL",GRAND CHAIN,IL,PULASKI
61325,"GRAND RIDGE, IL",GRAND RIDGE,IL,LA SALLE
62942,"GRAND TOWER, IL",GRAND TOWER,IL,JACKSON
62040,"GRANITE CITY, IL",GRANITE CITY,IL,MADISON
60940,"GRANT PARK, IL",GRANT PARK,IL,KANKAKEE
62943,"GRANTSBURG, IL",GRANTSBURG,IL,JOHNSON
61326,"GRANVILLE, IL",GRANVILLE,IL,PUTNAM
61743,"GRAYMONT, IL",GRAYMONT,IL,LIVINGSTON
60030,"GRAYSLAKE, IL",GRAYSLAKE,IL,LAKE
62844,"GRAYVILLE, IL",GRAYVILLE,IL,WHITE
60088,"GREAT LAKES, IL",GREAT LAKES,IL,LAKE
61534,"GREEN VALLEY, IL",GREEN VALLEY,IL,TAZEWELL
62044,"GREENFIELD, IL",GREENFIELD,IL,GREENE
62428,"GREENUP, IL",GREENUP,IL,CUMBERLAND
62642,"GREENVIEW, IL",GREENVIEW,IL,MENARD
62246,"GREENVILLE, IL",GREENVILLE,IL,BOND
61744,"GRIDLEY, IL",GRIDLEY,IL,MCLEAN
62340,"GRIGGSVILLE, IL",GRIGGSVILLE,IL,PIKE
61535,"GROVELAND, IL",GROVELAND,IL,TAZEWELL
60031,"GURNEE, IL",GURNEE,IL,LAKE
62247,"HAGARSTOWN, IL",HAGARSTOWN,IL,FAYETTE
62045,"HAMBURG, IL",HAMBURG,IL,CALHOUN
62046,"HAMEL, IL",HAMEL,IL,MADISON
62341,"HAMILTON, IL",HAMILTON,IL,HANCOCK
61929,"HAMMOND, IL",HAMMOND,IL,PIATT
60140,"HAMPSHIRE, IL",HAMPSHIRE,IL,KANE
61256,"HAMPTON, IL",HAMPTON,IL,ROCK ISLAND
61536,"HANNA CITY, IL",HANNA CITY,IL,PEORIA
61041,"HANOVER, IL",HANOVER,IL,JO DAVIESS
60133,"HANOVER PARK, IL",HANOVER PARK,IL,COOK
62047,"HARDIN, IL",HARDIN,IL,CALHOUN
61042,"HARMON, IL",HARMON,IL,LEE
62946,"HARRISBURG, IL",HARRISBURG,IL,SALINE
62537,"HARRISTOWN, IL",HARRISTOWN,IL,MACON
62048,"HARTFORD, IL",HARTFORD,IL,MADISON
62643,"HARTSBURG, IL",HARTSBURG,IL,LOGAN
60033,"HARVARD, IL",HARVARD,IL,MCHENRY
62538,"HARVEL, IL",HARVEL,IL,MONTGOMERY
60426,"HARVEY, IL",HARVEY,IL,COOK
60706,"HARWOOD HEIGHTS, IL",HARWOOD HEIGHTS,IL,COOK
62644,"HAVANA, IL",HAVANA,IL,MASON
60429,"HAZEL CREST, IL",HAZEL CREST,IL,COOK
60034,"HEBRON, IL",HEBRON,IL,MCHENRY
62248,"HECKER, IL",HECKER,IL,MONROE
61439,"HENDERSON, IL",HENDERSON,IL,KNOX
61327,"HENNEPIN, IL",HENNEPIN,IL,PUTNAM
61848,"HENNING, IL",HENNING,IL,VERMILION
61537,"HENRY, IL",HENRY,IL,MARSHALL
62947,"HEROD, IL",HEROD,IL,POPE
62431,"HERRICK, IL",HERRICK,IL,SHELBY
62948,"HERRIN, IL",HERRIN,IL,WILLIAMSON
60941,"HERSCHER, IL",HERSCHER,IL,KANKAKEE
62649,"HETTICK, IL",HETTICK,IL,MACOUPIN
61745,"HEYWORTH, IL",HEYWORTH,IL,MCLEAN
60457,"HICKORY HILLS, IL",HICKORY HILLS,IL,COOK
62432,"HIDALGO, IL",HIDALGO,IL,JASPER
62249,"HIGHLAND, IL",HIGHLAND,IL,MADISON
60035,"HIGHLAND PARK, IL",HIGHLAND PARK,IL,LAKE
60040,"HIGHWOOD, IL",HIGHWOOD,IL,LAKE
62049,"HILLSBORO, IL",HILLSBORO,IL,MONTGOMERY
61257,"HILLSDALE, IL",HILLSDALE,IL,ROCK ISLAND
60162,"HILLSIDE, IL",HILLSIDE,IL,COOK
62050,"HILLVIEW, IL",HILLVIEW,IL,GREENE
60520,"HINCKLEY, IL",HINCKLEY,IL,DEKALB
61930,"HINDSBORO, IL",HINDSBORO,IL,DOUGLAS
60141,"HINES, IL",HINES,IL,COOK
60521,"HINSDALE, IL",HINSDALE,IL,DUPAGE
60522,"HINSDALE, IL",HINSDALE,IL,DUPAGE
62250,"HOFFMAN, IL",HOFFMAN,IL,CLINTON
60169,"HOFFMAN ESTATES, IL",HOFFMAN ESTATES,IL,COOK
60179,"HOFFMAN ESTATES, IL",HOFFMAN ESTATES,IL,COOK
60192,"HOFFMAN ESTATES, IL",HOFFMAN ESTATES,IL,COOK
61043,"HOLCOMB, IL",HOLCOMB,IL,OGLE
61849,"HOMER, IL",HOMER,IL,CHAMPAIGN
60491,"HOMER GLEN, IL",HOMER GLEN,IL,WILL
60456,"HOMETOWN, IL",HOMETOWN,IL,COOK
60430,"HOMEWOOD, IL",HOMEWOOD,IL,COOK
60942,"HOOPESTON, IL",HOOPESTON,IL,VERMILION
61258,"HOOPPOLE, IL",HOOPPOLE,IL,HENRY
61747,"HOPEDALE, IL",HOPEDALE,IL,TAZEWELL
60944,"HOPKINS PARK, IL",HOPKINS PARK,IL,KANKAKEE
62803,"HOYLETON, IL",HOYLETON,IL,WASHINGTON
61748,"HUDSON, IL",HUDSON,IL,MCLEAN
62252,"HUEY, IL",HUEY,IL,CLINTON
62343,"HULL, IL",HULL,IL,PIKE
61931,"HUMBOLDT, IL",HUMBOLDT,IL,COLES
61932,"HUME, IL",HUME,IL,EDGAR
60142,"HUNTLEY, IL",HUNTLEY,IL,MCHENRY
62344,"HUNTSVILLE, IL",HUNTSVILLE,IL,SCHUYLER
62949,"HURST, IL",HURST,IL,WILLIAMSON
62433,"HUTSONVILLE, IL",HUTSONVILLE,IL,CRAWFORD
61259,"ILLINOIS CITY, IL",ILLINOIS CITY,IL,ROCK ISLAND
62539,"ILLIOPOLIS, IL",ILLIOPOLIS,IL,SANGAMON
62846,"INA, IL",INA,IL,JEFFERSON
61850,"INDIANOLA, IL",INDIANOLA,IL,VERMILION
61440,"INDUSTRY, IL",INDUSTRY,IL,MCDONOUGH
60041,"INGLESIDE, IL",INGLESIDE,IL,LAKE
62434,"INGRAHAM, IL",INGRAHAM,IL,CLAY
61441,"IPAVA, IL",IPAVA,IL,FULTON
60945,"IROQUOIS, IL",IROQUOIS,IL,IROQUOIS
62051,"IRVING, IL",IRVING,IL,MONTGOMERY
62848,"IRVINGTON, IL",IRVINGTON,IL,WASHINGTON
60042,"ISLAND LAKE, IL",ISLAND LAKE,IL,LAKE
60143,"ITASCA, IL",ITASCA,IL,DUPAGE
62849,"IUKA, IL",IUKA,IL,MARION
61851,"IVESDALE, IL",IVESDALE,IL,CHAMPAIGN
62650,"JACKSONVILLE, IL",JACKSONVILLE,IL,MORGAN
62651,"JACKSONVILLE, IL",JACKSONVILLE,IL,MORGAN
62950,"JACOB, IL",JACOB,IL,JACKSON
62052,"JERSEYVILLE, IL",JERSEYVILLE,IL,JERSEY
62436,"JEWETT, IL",JEWETT,IL,CUMBERLAND
62850,"JOHNSONVILLE, IL",JOHNSONVILLE,IL,WAYNE
62951,"JOHNSTON CITY, IL",JOHNSTON CITY,IL,WILLIAMSON
60431,"JOLIET, IL",JOLIET,IL,WILL
60432,"JOLIET, IL",JOLIET,IL,WILL
60433,"JOLIET, IL",JOLIET,IL,WILL
60434,"JOLIET, IL",JOLIET,IL,WILL
60435,"JOLIET, IL",JOLIET,IL,WILL
60436,"JOLIET, IL",JOLIET,IL,WILL
62952,"JONESBORO, IL",JONESBORO,IL,UNION
62953,"JOPPA, IL",JOPPA,IL,MASSAC
61260,"JOY, IL",JOY,IL,MERCER
62954,"JUNCTION, IL",JUNCTION,IL,GALLATIN
60458,"JUSTICE, IL",JUSTICE,IL,COOK
62053,"KAMPSVILLE, IL",KAMPSVILLE,IL,CALHOUN
62054,"KANE, IL",KANE,IL,GREENE
60144,"KANEVILLE, IL",KANEVILLE,IL,KANE
60901,"KANKAKEE, IL",KANKAKEE,IL,KANKAKEE
61933,"KANSAS, IL",KANSAS,IL,EDGAR
62956,"KARNAK, IL",KARNAK,IL,PULASKI
61328,"KASBEER, IL",KASBEER,IL,BUREAU
62851,"KEENES, IL",KEENES,IL,WAYNE
61442,"KEITHSBURG, IL",KEITHSBURG,IL,MERCER
62853,"KELL, IL",KELL,IL,MARION
60946,"KEMPTON, IL",KEMPTON,IL,FORD
60043,"KENILWORTH, IL",KENILWORTH,IL,COOK
61749,"KENNEY, IL",KENNEY,IL,DEWITT
61044,"KENT, IL",KENT,IL,STEPHENSON
61443,"KEWANEE, IL",KEWANEE,IL,HENRY
62253,"KEYESPORT, IL",KEYESPORT,IL,CLINTON
62655,"KILBOURNE, IL",KILBOURNE,IL,MASON
62540,"KINCAID, IL",KINCAID,IL,CHRISTIAN
62345,"KINDERHOOK, IL",KINDERHOOK,IL,PIKE
60145,"KINGSTON, IL",KINGSTON,IL,DEKALB
61539,"KINGSTON MINES, IL",KINGSTON MINES,IL,PEORIA
62854,"KINMUNDY, IL",KINMUNDY,IL,MARION
60437,"KINSMAN, IL",KINSMAN,IL,GRUNDY
60146,"KIRKLAND, IL",KIRKLAND,IL,DEKALB
61447,"KIRKWOOD, IL",KIRKWOOD,IL,WARREN
61448,"KNOXVILLE, IL",KNOXVILLE,IL,KNOX
61449,"LA FAYETTE, IL",LA FAYETTE,IL,STARK
60525,"LA GRANGE, IL",LA GRANGE,IL,COOK
60526,"LA GRANGE PARK, IL",LA GRANGE PARK,IL,COOK
61450,"LA HARPE, IL",LA HARPE,IL,HANCOCK
61330,"LA MOILLE, IL",LA MOILLE,IL,BUREAU
61936,"LA PLACE, IL",LA PLACE,IL,PIATT
62346,"LA PRAIRIE, IL",LA PRAIRIE,IL,ADAMS
61541,"LA ROSE, IL",LA ROSE,IL,MARSHALL
61301,"LA SALLE, IL",LA SALLE,IL,LA SALLE
61540,"LACON, IL",LACON,IL,MARSHALL
61329,"LADD, IL",LADD,IL,BUREAU
60147,"LAFOX, IL",LAFOX,IL,KANE
60044,"LAKE BLUFF, IL",LAKE BLUFF,IL,LAKE
60045,"LAKE FOREST, IL",LAKE FOREST,IL,LAKE
62541,"LAKE FORK, IL",LAKE FORK,IL,LOGAN
60156,"LAKE IN THE HILLS, IL",LAKE IN THE HILLS,IL,MCHENRY
60046,"LAKE VILLA, IL",LAKE VILLA,IL,LAKE
60047,"LAKE ZURICH, IL",LAKE ZURICH,IL,LAKE
62438,"LAKEWOOD, IL",LAKEWOOD,IL,SHELBY
61046,"LANARK, IL",LANARK,IL,CARROLL
61750,"LANE, IL",LANE,IL,DEWITT
60438,"LANSING, IL",LANSING,IL,COOK
62543,"LATHAM, IL",LATHAM,IL,LOGAN
61451,"LAURA, IL",LAURA,IL,PEORIA
61751,"LAWNDALE, IL",LAWNDALE,IL,LOGAN
62439,"LAWRENCEVILLE, IL",LAWRENCEVILLE,IL,LAWRENCE
61752,"LE ROY, IL",LE ROY,IL,MCLEAN
61047,"LEAF RIVER, IL",LEAF RIVER,IL,OGLE
62254,"LEBANON, IL",LEBANON,IL,SAINT CLAIR
60530,"LEE, IL",LEE,IL,LEE
60531,"LELAND, IL",LELAND,IL,LA SALLE
60439,"LEMONT, IL",LEMONT,IL,COOK
61048,"LENA, IL",LENA,IL,STEPHENSON
62255,"LENZBURG, IL",LENZBURG,IL,SAINT CLAIR
61332,"LEONORE, IL",LEONORE,IL,LA SALLE
62440,"LERNA, IL",LERNA,IL,COLES
61542,"LEWISTOWN, IL",LEWISTOWN,IL,FULTON
61753,"LEXINGTON, IL",LEXINGTON,IL,MCLEAN
62347,"LIBERTY, IL",LIBERTY,IL,ADAMS
60048,"LIBERTYVILLE, IL",LIBERTYVILLE,IL,LAKE
62348,"LIMA, IL",LIMA,IL,ADAMS
62656,"LINCOLN, IL",LINCOLN,IL,LOGAN
60069,"LINCOLNSHIRE, IL",LINCOLNSHIRE,IL,LAKE
60712,"LINCOLNWOOD, IL",LINCOLNWOOD,IL,COOK
61049,"LINDENWOOD, IL",LINDENWOOD,IL,OGLE
60532,"LISLE, IL",LISLE,IL,DUPAGE
62056,"LITCHFIELD, IL",LITCHFIELD,IL,MONTGOMERY
62660,"LITERBERRY, IL",LITERBERRY,IL,MORGAN
61453,"LITTLE YORK, IL",LITTLE YORK,IL,WARREN
61452,"LITTLETON, IL",LITTLETON,IL,SCHUYLER
61543,"LIVERPOOL, IL",LIVERPOOL,IL,FULTON
62058,"LIVINGSTON, IL",LIVINGSTON,IL,MADISON
62661,"LOAMI, IL",LOAMI,IL,SANGAMON
60441,"LOCKPORT, IL",LOCKPORT,IL,WILL
60948,"LODA, IL",LODA,IL,IROQUOIS
62856,"LOGAN, IL",LOGAN,IL,FRANKLIN
61454,"LOMAX, IL",LOMAX,IL,HENDERSON
60148,"LOMBARD, IL",LOMBARD,IL,DUPAGE
61544,"LONDON MILLS, IL",LONDON MILLS,IL,FULTON
61333,"LONG POINT, IL",LONG POINT,IL,LIVINGSTON
61852,"LONGVIEW, IL",LONGVIEW,IL,CHAMPAIGN
62349,"LORAINE, IL",LORAINE,IL,ADAMS
61334,"LOSTANT, IL",LOSTANT,IL,LA SALLE
62858,"LOUISVILLE, IL",LOUISVILLE,IL,CLAY
62059,"LOVEJOY, IL",LOVEJOY,IL,SAINT CLAIR
61111,"LOVES PARK, IL",LOVES PARK,IL,WINNEBAGO
61130,"LOVES PARK, IL",LOVES PARK,IL,WINNEBAGO
61132,"LOVES PARK, IL",LOVES PARK,IL,WINNEBAGO
61937,"LOVINGTON, IL",LOVINGTON,IL,MOULTRIE
61545,"LOWPOINT, IL",LOWPOINT,IL,WOODFORD
60949,"LUDLOW, IL",LUDLOW,IL,CHAMPAIGN
61261,"LYNDON, IL",LYNDON,IL,WHITESIDE
61262,"LYNN CENTER, IL",LYNN CENTER,IL,HENRY
60534,"LYONS, IL",LYONS,IL,COOK
62860,"MACEDONIA, IL",MACEDONIA,IL,HAMILTON
61115,"MACHESNEY PARK, IL",MACHESNEY PARK,IL,WINNEBAGO
61755,"MACKINAW, IL",MACKINAW,IL,TAZEWELL
61455,"MACOMB, IL",MACOMB,IL,MCDONOUGH
62544,"MACON, IL",MACON,IL,MACON
62060,"MADISON, IL",MADISON,IL,MADISON
62256,"MAEYSTOWN, IL",MAEYSTOWN,IL,MONROE
61336,"MAGNOLIA, IL",MAGNOLIA,IL,PUTNAM
61853,"MAHOMET, IL",MAHOMET,IL,CHAMPAIGN
62958,"MAKANDA, IL",MAKANDA,IL,JACKSON
61337,"MALDEN, IL",MALDEN,IL,BUREAU
60150,"MALTA, IL",MALTA,IL,DEKALB
62663,"MANCHESTER, IL",MANCHESTER,IL,SCOTT
60442,"MANHATTAN, IL",MANHATTAN,IL,WILL
61546,"MANITO, IL",MANITO,IL,MASON
61338,"MANLIUS, IL",MANLIUS,IL,BUREAU
61854,"MANSFIELD, IL",MANSFIELD,IL,PIATT
60950,"MANTENO, IL",MANTENO,IL,KANKAKEE
60151,"MAPLE PARK, IL",MAPLE PARK,IL,KANE
61547,"MAPLETON, IL",MAPLETON,IL,PEORIA
61458,"MAQUON, IL",MAQUON,IL,KNOX
60152,"MARENGO, IL",MARENGO,IL,MCHENRY
61459,"MARIETTA, IL",MARIETTA,IL,FULTON
62061,"MARINE, IL",MARINE,IL,MADISON
62959,"MARION, IL",MARION,IL,WILLIAMSON
62257,"MARISSA, IL",MARISSA,IL,SAINT CLAIR
61340,"MARK, IL",MARK,IL,PUTNAM
60428,"MARKHAM, IL",MARKHAM,IL,COOK
61756,"MAROA, IL",MAROA,IL,MACON
61341,"MARSEILLES, IL",MARSEILLES,IL,LA SALLE
62441,"MARSHALL, IL",MARSHALL,IL,CLARK
62442,"MARTINSVILLE, IL",MARTINSVILLE,IL,CLARK
60951,"MARTINTON, IL",MARTINTON,IL,IROQUOIS
62062,"MARYVILLE, IL",MARYVILLE,IL,MADISON
62258,"MASCOUTAH, IL",MASCOUTAH,IL,SAINT CLAIR
62443,"MASON, IL",MASON,IL,EFFINGHAM
62664,"MASON CITY, IL",MASON CITY,IL,MASON
61263,"MATHERVILLE, IL",MATHERVILLE,IL,MERCER
60443,"MATTESON, IL",MATTESON,IL,COOK
61938,"MATTOON, IL",MATTOON,IL,COLES
60153,"MAYWOOD, IL",MAYWOOD,IL,COOK
60444,"MAZON, IL",MAZON,IL,GRUNDY
62957,"MC CLURE, IL",MC CLURE,IL,ALEXANDER
61050,"MC CONNELL, IL",MC CONNELL,IL,STEPHENSON
61754,"MC LEAN, IL",MC LEAN,IL,MCLEAN
62859,"MC LEANSBORO, IL",MC LEANSBORO,IL,HAMILTON
61335,"MC NABB, IL",MC NABB,IL,PUTNAM
60050,"MCHENRY, IL",MCHENRY,IL,MCHENRY
60051,"MCHENRY, IL",MCHENRY,IL,MCHENRY
62545,"MECHANICSBURG, IL",MECHANICSBURG,IL,SANGAMON
61460,"MEDIA, IL",MEDIA,IL,HENDERSON
60157,"MEDINAH, IL",MEDINAH,IL,DUPAGE
62063,"MEDORA, IL",MEDORA,IL,JERSEY
60160,"MELROSE PARK, IL",MELROSE PARK,IL,COOK
60161,"MELROSE PARK, IL",MELROSE PARK,IL,COOK
60164,"MELROSE PARK, IL",MELROSE PARK,IL,COOK
60952,"MELVIN, IL",MELVIN,IL,FORD
62259,"MENARD, IL",MENARD,IL,RANDOLPH
62351,"MENDON, IL",MENDON,IL,ADAMS
61342,"MENDOTA, IL",MENDOTA,IL,LA SALLE
62665,"MEREDOSIA, IL",MEREDOSIA,IL,MORGAN
61758,"MERNA, IL",MERNA,IL,MCLEAN
61548,"METAMORA, IL",METAMORA,IL,WOODFORD
61940,"METCALF, IL",METCALF,IL,EDGAR
62960,"METROPOLIS, IL",METROPOLIS,IL,MASSAC
62065,"MICHAEL, IL",MICHAEL,IL,CALHOUN
62666,"MIDDLETOWN, IL",MIDDLETOWN,IL,LOGAN
60445,"MIDLOTHIAN, IL",MIDLOTHIAN,IL,COOK
61264,"MILAN, IL",MILAN,IL,ROCK ISLAND
60953,"MILFORD, IL",MILFORD,IL,IROQUOIS
62862,"MILL SHOALS, IL",MILL SHOALS,IL,WHITE
60536,"MILLBROOK, IL",MILLBROOK,IL,KENDALL
61051,"MILLEDGEVILLE, IL",MILLEDGEVILLE,IL,CARROLL
60537,"MILLINGTON, IL",MILLINGTON,IL,KENDALL
62260,"MILLSTADT, IL",MILLSTADT,IL,SAINT CLAIR
61855,"MILMINE, IL",MILMINE,IL,PIATT
62352,"MILTON, IL",MILTON,IL,PIKE
61344,"MINERAL, IL",MINERAL,IL,BUREAU
61759,"MINIER, IL",MINIER,IL,TAZEWELL
61760,"MINONK, IL",MINONK,IL,WOODFORD
60447,"MINOOKA, IL",MINOOKA,IL,GRUNDY
62444,"MODE, IL",MODE,IL,SHELBY
62667,"MODESTO, IL",MODESTO,IL,MACOUPIN
62261,"MODOC, IL",MODOC,IL,RANDOLPH
60448,"MOKENA, IL",MOKENA,IL,WILL
61265,"MOLINE, IL",MOLINE,IL,ROCK ISLAND
61266,"MOLINE, IL",MOLINE,IL,ROCK ISLAND
60954,"MOMENCE, IL",MOMENCE,IL,KANKAKEE
60449,"MONEE, IL",MONEE,IL,WILL
61462,"MONMOUTH, IL",MONMOUTH,IL,WARREN
61052,"MONROE CENTER, IL",MONROE CENTER,IL,OGLE
60538,"MONTGOMERY, IL",MONTGOMERY,IL,KENDALL
61856,"MONTICELLO, IL",MONTICELLO,IL,PIATT
62445,"MONTROSE, IL",MONTROSE,IL,EFFINGHAM
60539,"MOOSEHEART, IL",MOOSEHEART,IL,KANE
62067,"MORO, IL",MORO,IL,MADISON
60450,"MORRIS, IL",MORRIS,IL,GRUNDY
61270,"MORRISON, IL",MORRISON,IL,WHITESIDE
62546,"MORRISONVILLE, IL",MORRISONVILLE,IL,CHRISTIAN
61550,"MORTON, IL",MORTON,IL,TAZEWELL
60053,"MORTON GROVE, IL",MORTON GROVE,IL,COOK
61552,"MOSSVILLE, IL",MOSSVILLE,IL,PEORIA
62963,"MOUND CITY, IL",MOUND CITY,IL,PULASKI
62964,"MOUNDS, IL",MOUNDS,IL,PULASKI
62547,"MOUNT AUBURN, IL",MOUNT AUBURN,IL,CHRISTIAN
62863,"MOUNT CARMEL, IL",MOUNT CARMEL,IL,WABASH
61053,"MOUNT CARROLL, IL",MOUNT CARROLL,IL,CARROLL
62446,"MOUNT ERIE, IL",MOUNT ERIE,IL,WAYNE
61054,"MOUNT MORRIS, IL",MOUNT MORRIS,IL,OGLE
62069,"MOUNT OLIVE, IL",MOUNT OLIVE,IL,MACOUPIN
60056,"MOUNT PROSPECT, IL",MOUNT PROSPECT,IL,COOK
62548,"MOUNT PULASKI, IL",MOUNT PULASKI,IL,LOGAN
62353,"MOUNT STERLING, IL",MOUNT STERLING,IL,BROWN
62864,"MOUNT VERNON, IL",MOUNT VERNON,IL,JEFFERSON
62550,"MOWEAQUA, IL",MOWEAQUA,IL,CHRISTIAN
62070,"MOZIER, IL",MOZIER,IL,CALHOUN
62549,"MT ZION, IL",MT ZION,IL,MACON
62965,"MUDDY, IL",MUDDY,IL,SALINE
62262,"MULBERRY GROVE, IL",MULBERRY GROVE,IL,BOND
62865,"MULKEYTOWN, IL",MULKEYTOWN,IL,FRANKLIN
61857,"MUNCIE, IL",MUNCIE,IL,VERMILION
60060,"MUNDELEIN, IL",MUNDELEIN,IL,LAKE
62966,"MURPHYSBORO, IL",MURPHYSBORO,IL,JACKSON
62668,"MURRAYVILLE, IL",MURRAYVILLE,IL,MORGAN
61057,"NACHUSA, IL",NACHUSA,IL,LEE
60540,"NAPERVILLE, IL",NAPERVILLE,IL,DUPAGE
60563,"NAPERVILLE, IL",NAPERVILLE,IL,DUPAGE
60565,"NAPERVILLE, IL",NAPERVILLE,IL,DUPAGE
60566,"NAPERVILLE, IL",NAPERVILLE,IL,DUPAGE
60567,"NAPERVILLE, IL",NAPERVILLE,IL,DUPAGE
60564,"NAPERVILLE, IL",NAPERVILLE,IL,WILL
62263,"NASHVILLE, IL",NASHVILLE,IL,WASHINGTON
62866,"NASON, IL",NASON,IL,JEFFERSON
62071,"NATIONAL STOCK YARDS, IL",NATIONAL STOCK YARDS,IL,SAINT CLAIR
62354,"NAUVOO, IL",NAUVOO,IL,HANCOCK
62355,"NEBO, IL",NEBO,IL,PIKE
62447,"NEOGA, IL",NEOGA,IL,CUMBERLAND
61345,"NEPONSET, IL",NEPONSET,IL,BUREAU
62264,"NEW ATHENS, IL",NEW ATHENS,IL,SAINT CLAIR
62265,"NEW BADEN, IL",NEW BADEN,IL,CLINTON
61346,"NEW BEDFORD, IL",NEW BEDFORD,IL,BUREAU
62670,"NEW BERLIN, IL",NEW BERLIN,IL,SANGAMON
61272,"NEW BOSTON, IL",NEW BOSTON,IL,MERCER
62967,"NEW BURNSIDE, IL",NEW BURNSIDE,IL,JOHNSON
62356,"NEW CANTON, IL",NEW CANTON,IL,PIKE
62074,"NEW DOUGLAS, IL",NEW DOUGLAS,IL,MADISON
62867,"NEW HAVEN, IL",NEW HAVEN,IL,GALLATIN
62671,"NEW HOLLAND, IL",NEW HOLLAND,IL,LOGAN
60451,"NEW LENOX, IL",NEW LENOX,IL,WILL
62266,"NEW MEMPHIS, IL",NEW MEMPHIS,IL,CLINTON
62357,"NEW SALEM, IL",NEW SALEM,IL,PIKE
61465,"NEW WINDSOR, IL",NEW WINDSOR,IL,MERCER
60541,"NEWARK, IL",NEWARK,IL,KENDALL
61942,"NEWMAN, IL",NEWMAN,IL,DOUGLAS
62448,"NEWTON, IL",NEWTON,IL,JASPER
62551,"NIANTIC, IL",NIANTIC,IL,MACON
60714,"NILES, IL",NILES,IL,COOK
62672,"NILWOOD, IL",NILWOOD,IL,MACOUPIN
62358,"NIOTA, IL",NIOTA,IL,HANCOCK
62868,"NOBLE, IL",NOBLE,IL,RICHLAND
62075,"NOKOMIS, IL",NOKOMIS,IL,MONTGOMERY
61059,"NORA, IL",NORA,IL,JO DAVIESS
61761,"NORMAL, IL",NORMAL,IL,MCLEAN
61790,"NORMAL, IL",NORMAL,IL,MCLEAN
61553,"NORRIS, IL",NORRIS,IL,FULTON
62869,"NORRIS CITY, IL",NORRIS CITY,IL,WHITE
60542,"NORTH AURORA, IL",NORTH AURORA,IL,KANE
60064,"NORTH CHICAGO, IL",NORTH CHICAGO,IL,LAKE
61466,"NORTH HENDERSON, IL",NORTH HENDERSON,IL,MERCER
60062,"NORTHBROOK, IL",NORTHBROOK,IL,COOK
60065,"NORTHBROOK, IL",NORTHBROOK,IL,COOK
62269,"O FALLON, IL",O FALLON,IL,SAINT CLAIR
60523,"OAK BROOK, IL",OAK BROOK,IL,DUPAGE
60452,"OAK FOREST, IL",OAK FOREST,IL,COOK
60453,"OAK LAWN, IL",OAK LAWN,IL,COOK
60454,"OAK LAWN, IL",OAK LAWN,IL,COOK
60301,"OAK PARK, IL",OAK PARK,IL,COOK
60302,"OAK PARK, IL",OAK PARK,IL,COOK
60303,"OAK PARK, IL",OAK PARK,IL,COOK
60304,"OAK PARK, IL",OAK PARK,IL,COOK
62268,"OAKDALE, IL",OAKDALE,IL,WASHINGTON
62673,"OAKFORD, IL",OAKFORD,IL,MENARD
61943,"OAKLAND, IL",OAKLAND,IL,COLES
61858,"OAKWOOD, IL",OAKWOOD,IL,VERMILION
62449,"OBLONG, IL",OBLONG,IL,CRAWFORD
62553,"OCONEE, IL",OCONEE,IL,SHELBY
60460,"ODELL, IL",ODELL,IL,LIVINGSTON
62870,"ODIN, IL",ODIN,IL,MARION
61859,"OGDEN, IL",OGDEN,IL,CHAMPAIGN
61348,"OGLESBY, IL",OGLESBY,IL,LA SALLE
61349,"OHIO, IL",OHIO,IL,BUREAU
62076,"OHLMAN, IL",OHLMAN,IL,MONTGOMERY
62271,"OKAWVILLE, IL",OKAWVILLE,IL,WASHINGTON
62969,"OLIVE BRANCH, IL",OLIVE BRANCH,IL,ALEXANDER
62970,"OLMSTED, IL",OLMSTED,IL,PULASKI
62450,"OLNEY, IL",OLNEY,IL,RICHLAND
60461,"OLYMPIA FIELDS, IL",OLYMPIA FIELDS,IL,COOK
62871,"OMAHA, IL",OMAHA,IL,GALLATIN
60955,"ONARGA, IL",ONARGA,IL,IROQUOIS
61467,"ONEIDA, IL",ONEIDA,IL,KNOX
62872,"OPDYKE, IL",OPDYKE,IL,JEFFERSON
61468,"OPHIEM, IL",OPHIEM,IL,HENRY
61469,"OQUAWKA, IL",OQUAWKA,IL,HENDERSON
61060,"ORANGEVILLE, IL",ORANGEVILLE,IL,STEPHENSON
62554,"OREANA, IL",OREANA,IL,MACON
61061,"OREGON, IL",OREGON,IL,OGLE
62874,"ORIENT, IL",ORIENT,IL,FRANKLIN
61273,"ORION, IL",ORION,IL,HENRY
60462,"ORLAND PARK, IL",ORLAND PARK,IL,COOK
60467,"ORLAND PARK, IL",ORLAND PARK,IL,COOK
61274,"OSCO, IL",OSCO,IL,HENRY
60543,"OSWEGO, IL",OSWEGO,IL,KENDALL
61350,"OTTAWA, IL",OTTAWA,IL,LA SALLE
62555,"OWANECO, IL",OWANECO,IL,CHRISTIAN
62972,"OZARK, IL",OZARK,IL,JOHNSON
60038,"PALATINE, IL",PALATINE,IL,COOK
60055,"PALATINE, IL",PALATINE,IL,COOK
60067,"PALATINE, IL",PALATINE,IL,COOK
60074,"PALATINE, IL",PALATINE,IL,COOK
60078,"PALATINE, IL",PALATINE,IL,COOK
60094,"PALATINE, IL",PALATINE,IL,COOK
60095,"PALATINE, IL",PALATINE,IL,COOK
62451,"PALESTINE, IL",PALESTINE,IL,CRAWFORD
62556,"PALMER, IL",PALMER,IL,CHRISTIAN
62674,"PALMYRA, IL",PALMYRA,IL,MACOUPIN
62359,"PALOMA, IL",PALOMA,IL,ADAMS
60463,"PALOS HEIGHTS, IL",PALOS HEIGHTS,IL,COOK
60465,"PALOS HILLS, IL",PALOS HILLS,IL,COOK
60464,"PALOS PARK, IL",PALOS PARK,IL,COOK
62557,"PANA, IL",PANA,IL,CHRISTIAN
62077,"PANAMA, IL",PANAMA,IL,MONTGOMERY
60956,"PAPINEAU, IL",PAPINEAU,IL,IROQUOIS
61944,"PARIS, IL",PARIS,IL,EDGAR
60466,"PARK FOREST, IL",PARK FOREST,IL,COOK
60068,"PARK RIDGE, IL",PARK RIDGE,IL,COOK
62452,"PARKERSBURG, IL",PARKERSBURG,IL,RICHLAND
62875,"PATOKA, IL",PATOKA,IL,MARION
62078,"PATTERSON, IL",PATTERSON,IL,GREENE
61353,"PAW PAW, IL",PAW PAW,IL,LEE
62558,"PAWNEE, IL",PAWNEE,IL,SANGAMON
60957,"PAXTON, IL",PAXTON,IL,FORD
62360,"PAYSON, IL",PAYSON,IL,ADAMS
62361,"PEARL, IL",PEARL,IL,PIKE
61062,"PEARL CITY, IL",PEARL CITY,IL,STEPHENSON
61063,"PECATONICA, IL",PECATONICA,IL,WINNEBAGO
61554,"PEKIN, IL",PEKIN,IL,TAZEWELL
61555,"PEKIN, IL",PEKIN,IL,TAZEWELL
61558,"PEKIN, IL",PEKIN,IL,TAZEWELL
60958,"PEMBROKE TOWNSHIP, IL",PEMBROKE TOWNSHIP,IL,KANKAKEE
61862,"PENFIELD, IL",PENFIELD,IL,CHAMPAIGN
61601,"PEORIA, IL",PEORIA,IL,PEORIA
61602,"PEORIA, IL",PEORIA,IL,PEORIA
61603,"PEORIA, IL",PEORIA,IL,PEORIA
61604,"PEORIA, IL",PEORIA,IL,PEORIA
61605,"PEORIA, IL",PEORIA,IL,PEORIA
61606,"PEORIA, IL",PEORIA,IL,PEORIA
61607,"PEORIA, IL",PEORIA,IL,PEORIA
61612,"PEORIA, IL",PEORIA,IL,PEORIA
61613,"PEORIA, IL",PEORIA,IL,PEORIA
61614,"PEORIA, IL",PEORIA,IL,PEORIA
61615,"PEORIA, IL",PEORIA,IL,PEORIA
61625,"PEORIA, IL",PEORIA,IL,PEORIA
61629,"PEORIA, IL",PEORIA,IL,PEORIA
61630,"PEORIA, IL",PEORIA,IL,PEORIA
61634,"PEORIA, IL",PEORIA,IL,PEORIA
61636,"PEORIA, IL",PEORIA,IL,PEORIA
61637,"PEORIA, IL",PEORIA,IL,PEORIA
61639,"PEORIA, IL",PEORIA,IL,PEORIA
61641,"PEORIA, IL",PEORIA,IL,PEORIA
61643,"PEORIA, IL",PEORIA,IL,PEORIA
61650,"PEORIA, IL",PEORIA,IL,PEORIA
61652,"PEORIA, IL",PEORIA,IL,PEORIA
61654,"PEORIA, IL",PEORIA,IL,PEORIA
61656,"PEORIA, IL",PEORIA,IL,PEORIA
61616,"PEORIA HEIGHTS, IL",PEORIA HEIGHTS,IL,PEORIA
60468,"PEOTONE, IL",PEOTONE,IL,WILL
62272,"PERCY, IL",PERCY,IL,RANDOLPH
62973,"PERKS, IL",PERKS,IL,PULASKI
62362,"PERRY, IL",PERRY,IL,PIKE
61354,"PERU, IL",PERU,IL,LA SALLE
61863,"PESOTUM, IL",PESOTUM,IL,CHAMPAIGN
62675,"PETERSBURG, IL",PETERSBURG,IL,MENARD
61864,"PHILO, IL",PHILO,IL,CHAMPAIGN
62079,"PIASA, IL",PIASA,IL,MACOUPIN
62273,"PIERRON, IL",PIERRON,IL,BOND
62274,"PINCKNEYVILLE, IL",PINCKNEYVILLE,IL,PERRY
60959,"PIPER CITY, IL",PIPER CITY,IL,FORD
62974,"PITTSBURG, IL",PITTSBURG,IL,WILLIAMSON
62363,"PITTSFIELD, IL",PITTSFIELD,IL,PIKE
60544,"PLAINFIELD, IL",PLAINFIELD,IL,WILL
60585,"PLAINFIELD, IL",PLAINFIELD,IL,WILL
60586,"PLAINFIELD, IL",PLAINFIELD,IL,WILL
62365,"PLAINVILLE, IL",PLAINVILLE,IL,ADAMS
60545,"PLANO, IL",PLANO,IL,KENDALL
62366,"PLEASANT HILL, IL",PLEASANT HILL,IL,PIKE
62677,"PLEASANT PLAINS, IL",PLEASANT PLAINS,IL,SANGAMON
62367,"PLYMOUTH, IL",PLYMOUTH,IL,HANCOCK
62275,"POCAHONTAS, IL",POCAHONTAS,IL,BOND
61064,"POLO, IL",POLO,IL,OGLE
62975,"POMONA, IL",POMONA,IL,JACKSON
61764,"PONTIAC, IL",PONTIAC,IL,LIVINGSTON
61065,"POPLAR GROVE, IL",POPLAR GROVE,IL,BOONE
61275,"PORT BYRON, IL",PORT BYRON,IL,ROCK ISLAND
60469,"POSEN, IL",POSEN,IL,COOK
61865,"POTOMAC, IL",POTOMAC,IL,VERMILION
61470,"PRAIRIE CITY, IL",PRAIRIE CITY,IL,MCDONOUGH
62277,"PRAIRIE DU ROCHER, IL",PRAIRIE DU ROCHER,IL,RANDOLPH
61276,"PREEMPTION, IL",PREEMPTION,IL,MERCER
61356,"PRINCETON, IL",PRINCETON,IL,BUREAU
61559,"PRINCEVILLE, IL",PRINCEVILLE,IL,PEORIA
61277,"PROPHETSTOWN, IL",PROPHETSTOWN,IL,WHITESIDE
60070,"PROSPECT HEIGHTS, IL",PROSPECT HEIGHTS,IL,COOK
62976,"PULASKI, IL",PULASKI,IL,PULASKI
61560,"PUTNAM, IL",PUTNAM,IL,PUTNAM
62301,"QUINCY, IL",QUINCY,IL,ADAMS
62305,"QUINCY, IL",QUINCY,IL,ADAMS
62306,"QUINCY, IL",QUINCY,IL,ADAMS
62876,"RADOM, IL",RADOM,IL,WASHINGTON
62977,"RALEIGH, IL",RALEIGH,IL,SALINE
62080,"RAMSEY, IL",RAMSEY,IL,FAYETTE
60960,"RANKIN, IL",RANKIN,IL,VERMILION
60470,"RANSOM, IL",RANSOM,IL,LA SALLE
61866,"RANTOUL, IL",RANTOUL,IL,CHAMPAIGN
61278,"RAPIDS CITY, IL",RAPIDS CITY,IL,ROCK ISLAND
61471,"RARITAN, IL",RARITAN,IL,HENDERSON
62560,"RAYMOND, IL",RAYMOND,IL,MONTGOMERY
62278,"RED BUD, IL",RED BUD,IL,RANDOLPH
60961,"REDDICK, IL",REDDICK,IL,KANKAKEE
61949,"REDMON, IL",REDMON,IL,EDGAR
62279,"RENAULT, IL",RENAULT,IL,MONROE
61279,"REYNOLDS, IL",REYNOLDS,IL,ROCK ISLAND
60071,"RICHMOND, IL",RICHMOND,IL,MCHENRY
60471,"RICHTON PARK, IL",RICHTON PARK,IL,COOK
62877,"RICHVIEW, IL",RICHVIEW,IL,WASHINGTON
61870,"RIDGE FARM, IL",RIDGE FARM,IL,VERMILION
62979,"RIDGWAY, IL",RIDGWAY,IL,GALLATIN
61067,"RIDOTT, IL",RIDOTT,IL,STEPHENSON
62878,"RINARD, IL",RINARD,IL,WAYNE
60072,"RINGWOOD, IL",RINGWOOD,IL,MCHENRY
61472,"RIO, IL",RIO,IL,KNOX
60305,"RIVER FOREST, IL",RIVER FOREST,IL,COOK
60171,"RIVER GROVE, IL",RIVER GROVE,IL,COOK
60827,"RIVERDALE, IL",RIVERDALE,IL,COOK
60546,"RIVERSIDE, IL",RIVERSIDE,IL,COOK
62561,"RIVERTON, IL",RIVERTON,IL,SANGAMON
61561,"ROANOKE, IL",ROANOKE,IL,WOODFORD
60472,"ROBBINS, IL",ROBBINS,IL,COOK
60962,"ROBERTS, IL",ROBERTS,IL,FORD
62454,"ROBINSON, IL",ROBINSON,IL,CRAWFORD
61068,"ROCHELLE, IL",ROCHELLE,IL,OGLE
62563,"ROCHESTER, IL",ROCHESTER,IL,SANGAMON
61070,"ROCK CITY, IL",ROCK CITY,IL,STEPHENSON
61071,"ROCK FALLS, IL",ROCK FALLS,IL,WHITESIDE
61201,"ROCK ISLAND, IL",ROCK ISLAND,IL,ROCK ISLAND
61204,"ROCK ISLAND, IL",ROCK ISLAND,IL,ROCK ISLAND
61299,"ROCK ISLAND, IL",ROCK ISLAND,IL,ROCK ISLAND
62081,"ROCKBRIDGE, IL",ROCKBRIDGE,IL,GREENE
61101,"ROCKFORD, IL",ROCKFORD,IL,WINNEBAGO
61102,"ROCKFORD, IL",ROCKFORD,IL,WINNEBAGO
61103,"ROCKFORD, IL",ROCKFORD,IL,WINNEBAGO
61104,"ROCKFORD, IL",ROCKFORD,IL,WINNEBAGO
61105,"ROCKFORD, IL",ROCKFORD,IL,WINNEBAGO
61106,"ROCKFORD, IL",ROCKFORD,IL,WINNEBAGO
61107,"ROCKFORD, IL",ROCKFORD,IL,WINNEBAGO
61108,"ROCKFORD, IL",ROCKFORD,IL,WINNEBAGO
61109,"ROCKFORD, IL",ROCKFORD,IL,WINNEBAGO
61110,"ROCKFORD, IL",ROCKFORD,IL,WINNEBAGO
61112,"ROCKFORD, IL",ROCKFORD,IL,WINNEBAGO
61114,"ROCKFORD, IL",ROCKFORD,IL,WINNEBAGO
61125,"ROCKFORD, IL",ROCKFORD,IL,WINNEBAGO
61126,"ROCKFORD, IL",ROCKFORD,IL,WINNEBAGO
62370,"ROCKPORT, IL",ROCKPORT,IL,PIKE
61072,"ROCKTON, IL",ROCKTON,IL,WINNEBAGO
62280,"ROCKWOOD, IL",ROCKWOOD,IL,RANDOLPH
60008,"ROLLING MEADOWS, IL",ROLLING MEADOWS,IL,COOK
61562,"ROME, IL",ROME,IL,PEORIA
60446,"ROMEOVILLE, IL",ROMEOVILLE,IL,WILL
62082,"ROODHOUSE, IL",ROODHOUSE,IL,GREENE
62083,"ROSAMOND, IL",ROSAMOND,IL,CHRISTIAN
61073,"ROSCOE, IL",ROSCOE,IL,WINNEBAGO
60172,"ROSELLE, IL",ROSELLE,IL,DUPAGE
61473,"ROSEVILLE, IL",ROSEVILLE,IL,WARREN
62982,"ROSICLARE, IL",ROSICLARE,IL,HARDIN
60963,"ROSSVILLE, IL",ROSSVILLE,IL,VERMILION
60073,"ROUND LAKE, IL",ROUND LAKE,IL,LAKE
62084,"ROXANA, IL",ROXANA,IL,MADISON
61871,"ROYAL, IL",ROYAL,IL,CHAMPAIGN
62983,"ROYALTON, IL",ROYALTON,IL,FRANKLIN
62681,"RUSHVILLE, IL",RUSHVILLE,IL,SCHUYLER
60075,"RUSSELL, IL",RUSSELL,IL,LAKE
61358,"RUTLAND, IL",RUTLAND,IL,LA SALLE
61872,"SADORUS, IL",SADORUS,IL,CHAMPAIGN
62879,"SAILOR SPRINGS, IL",SAILOR SPRINGS,IL,CLAY
60964,"SAINT ANNE, IL",SAINT ANNE,IL,KANKAKEE
61474,"SAINT AUGUSTINE, IL",SAINT AUGUSTINE,IL,KNOX
60174,"SAINT CHARLES, IL",SAINT CHARLES,IL,KANE
60175,"SAINT CHARLES, IL",SAINT CHARLES,IL,KANE
61563,"SAINT DAVID, IL",SAINT DAVID,IL,FULTON
62458,"SAINT ELMO, IL",SAINT ELMO,IL,FAYETTE
62460,"SAINT FRANCISVILLE, IL",SAINT FRANCISVILLE,IL,LAWRENCE
62281,"SAINT JACOB, IL",SAINT JACOB,IL,MADISON
61873,"SAINT JOSEPH, IL",SAINT JOSEPH,IL,CHAMPAIGN
62282,"SAINT LIBORY, IL",SAINT LIBORY,IL,SAINT CLAIR
62880,"SAINT PETER, IL",SAINT PETER,IL,FAYETTE
62459,"SAINTE MARIE, IL",SAINTE MARIE,IL,JASPER
62881,"SALEM, IL",SALEM,IL,MARION
62682,"SAN JOSE, IL",SAN JOSE,IL,MASON
62882,"SANDOVAL, IL",SANDOVAL,IL,MARION
60548,"SANDWICH, IL",SANDWICH,IL,DEKALB
61769,"SAUNEMIN, IL",SAUNEMIN,IL,LIVINGSTON
61074,"SAVANNA, IL",SAVANNA,IL,CARROLL
61874,"SAVOY, IL",SAVOY,IL,CHAMPAIGN
61770,"SAYBROOK, IL",SAYBROOK,IL,MCLEAN
61075,"SCALES MOUND, IL",SCALES MOUND,IL,JO DAVIESS
60159,"SCHAUMBURG, IL",SCHAUMBURG,IL,COOK
60168,"SCHAUMBURG, IL",SCHAUMBURG,IL,COOK
60173,"SCHAUMBURG, IL",SCHAUMBURG,IL,COOK
60193,"SCHAUMBURG, IL",SCHAUMBURG,IL,COOK
60194,"SCHAUMBURG, IL",SCHAUMBURG,IL,COOK
60195,"SCHAUMBURG, IL",SCHAUMBURG,IL,COOK
60196,"SCHAUMBURG, IL",SCHAUMBURG,IL,COOK
62883,"SCHELLER, IL",SCHELLER,IL,JEFFERSON
60176,"SCHILLER PARK, IL",SCHILLER PARK,IL,COOK
61475,"SCIOTA, IL",SCIOTA,IL,MCDONOUGH
62225,"SCOTT AIR FORCE BASE, IL",SCOTT AIR FORCE BASE,IL,SAINT CLAIR
61476,"SEATON, IL",SEATON,IL,MERCER
61359,"SEATONVILLE, IL",SEATONVILLE,IL,BUREAU
61771,"SECOR, IL",SECOR,IL,WOODFORD
61360,"SENECA, IL",SENECA,IL,LA SALLE
60549,"SERENA, IL",SERENA,IL,LA SALLE
62884,"SESSER, IL",SESSER,IL,FRANKLIN
61077,"SEWARD, IL",SEWARD,IL,WINNEBAGO
61875,"SEYMOUR, IL",SEYMOUR,IL,CHAMPAIGN
60550,"SHABBONA, IL",SHABBONA,IL,DEKALB
61078,"SHANNON, IL",SHANNON,IL,CARROLL
62984,"SHAWNEETOWN, IL",SHAWNEETOWN,IL,GALLATIN
61361,"SHEFFIELD, IL",SHEFFIELD,IL,BUREAU
62565,"SHELBYVILLE, IL",SHELBYVILLE,IL,SHELBY
60966,"SHELDON, IL",SHELDON,IL,IROQUOIS
60551,"SHERIDAN, IL",SHERIDAN,IL,LA SALLE
62684,"SHERMAN, IL",SHERMAN,IL,SANGAMON
61281,"SHERRARD, IL",SHERRARD,IL,MERCER
62685,"SHIPMAN, IL",SHIPMAN,IL,MACOUPIN
61079,"SHIRLAND, IL",SHIRLAND,IL,WINNEBAGO
61772,"SHIRLEY, IL",SHIRLEY,IL,MCLEAN
62885,"SHOBONIER, IL",SHOBONIER,IL,FAYETTE
60404,"SHOREWOOD, IL",SHOREWOOD,IL,WILL
62461,"SHUMWAY, IL",SHUMWAY,IL,EFFINGHAM
61773,"SIBLEY, IL",SIBLEY,IL,FORD
61876,"SIDELL, IL",SIDELL,IL,VERMILION
61877,"SIDNEY, IL",SIDNEY,IL,CHAMPAIGN
62462,"SIGEL, IL",SIGEL,IL,SHELBY
61282,"SILVIS, IL",SILVIS,IL,ROCK ISLAND
62985,"SIMPSON, IL",SIMPSON,IL,JOHNSON
62886,"SIMS, IL",SIMS,IL,WAYNE
60076,"SKOKIE, IL",SKOKIE,IL,COOK
60077,"SKOKIE, IL",SKOKIE,IL,COOK
62284,"SMITHBORO, IL",SMITHBORO,IL,BOND
61477,"SMITHFIELD, IL",SMITHFIELD,IL,FULTON
61478,"SMITHSHIRE, IL",SMITHSHIRE,IL,WARREN
62285,"SMITHTON, IL",SMITHTON,IL,SAINT CLAIR
60552,"SOMONAUK, IL",SOMONAUK,IL,DEKALB
62086,"SORENTO, IL",SORENTO,IL,BOND
61080,"SOUTH BELOIT, IL",SOUTH BELOIT,IL,WINNEBAGO
60177,"SOUTH ELGIN, IL",SOUTH ELGIN,IL,KANE
60473,"SOUTH HOLLAND, IL",SOUTH HOLLAND,IL,COOK
61564,"SOUTH PEKIN, IL",SOUTH PEKIN,IL,TAZEWELL
62087,"SOUTH ROXANA, IL",SOUTH ROXANA,IL,MADISON
60474,"SOUTH WILMINGTON, IL",SOUTH WILMINGTON,IL,GRUNDY
61565,"SPARLAND, IL",SPARLAND,IL,MARSHALL
62286,"SPARTA, IL",SPARTA,IL,RANDOLPH
61479,"SPEER, IL",SPEER,IL,STARK
60081,"SPRING GROVE, IL",SPRING GROVE,IL,MCHENRY
61362,"SPRING VALLEY, IL",SPRING VALLEY,IL,BUREAU
62887,"SPRINGERTON, IL",SPRINGERTON,IL,WHITE
62701,"SPRINGFIELD, IL",SPRINGFIELD,IL,SANGAMON
62702,"SPRINGFIELD, IL",SPRINGFIELD,IL,SANGAMON
62703,"SPRINGFIELD, IL",SPRINGFIELD,IL,SANGAMON
62704,"SPRINGFIELD, IL",SPRINGFIELD,IL,SANGAMON
62705,"SPRINGFIELD, IL",SPRINGFIELD,IL,SANGAMON
62706,"SPRINGFIELD, IL",SPRINGFIELD,IL,SANGAMON
62707,"SPRINGFIELD, IL",SPRINGFIELD,IL,SANGAMON
62708,"SPRINGFIELD, IL",SPRINGFIELD,IL,SANGAMON
62711,"SPRINGFIELD, IL",SPRINGFIELD,IL,SANGAMON
62712,"SPRINGFIELD, IL",SPRINGFIELD,IL,SANGAMON
62715,"SPRINGFIELD, IL",SPRINGFIELD,IL,SANGAMON
62739,"SPRINGFIELD, IL",SPRINGFIELD,IL,SANGAMON
62756,"SPRINGFIELD, IL",SPRINGFIELD,IL,SANGAMON
62764,"SPRINGFIELD, IL",SPRINGFIELD,IL,SANGAMON
62769,"SPRINGFIELD, IL",SPRINGFIELD,IL,SANGAMON
62781,"SPRINGFIELD, IL",SPRINGFIELD,IL,SANGAMON
62786,"SPRINGFIELD, IL",SPRINGFIELD,IL,SANGAMON
62791,"SPRINGFIELD, IL",SPRINGFIELD,IL,SANGAMON
62794,"SPRINGFIELD, IL",SPRINGFIELD,IL,SANGAMON
61363,"STANDARD, IL",STANDARD,IL,PUTNAM
61774,"STANFORD, IL",STANFORD,IL,MCLEAN
62088,"STAUNTON, IL",STAUNTON,IL,MACOUPIN
62288,"STEELEVILLE, IL",STEELEVILLE,IL,RANDOLPH
60475,"STEGER, IL",STEGER,IL,COOK
61081,"STERLING, IL",STERLING,IL,WHITESIDE
60553,"STEWARD, IL",STEWARD,IL,LEE
62463,"STEWARDSON, IL",STEWARDSON,IL,SHELBY
61084,"STILLMAN VALLEY, IL",STILLMAN VALLEY,IL,OGLE
60967,"STOCKLAND, IL",STOCKLAND,IL,IROQUOIS
61085,"STOCKTON, IL",STOCKTON,IL,JO DAVIESS
60165,"STONE PARK, IL",STONE PARK,IL,COOK
62987,"STONEFORT, IL",STONEFORT,IL,SALINE
62567,"STONINGTON, IL",STONINGTON,IL,CHRISTIAN
62464,"STOY, IL",STOY,IL,CRAWFORD
62465,"STRASBURG, IL",STRASBURG,IL,SHELBY
61775,"STRAWN, IL",STRAWN,IL,LIVINGSTON
60107,"STREAMWOOD, IL",STREAMWOOD,IL,COOK
61364,"STREATOR, IL",STREATOR,IL,LA SALLE
61311,"STREATOR, IL",STREATOR,IL,LIVINGSTON
61480,"STRONGHURST, IL",STRONGHURST,IL,HENDERSON
61367,"SUBLETTE, IL",SUBLETTE,IL,LEE
60554,"SUGAR GROVE, IL",SUGAR GROVE,IL,KANE
61951,"SULLIVAN, IL",SULLIVAN,IL,MOULTRIE
62289,"SUMMERFIELD, IL",SUMMERFIELD,IL,SAINT CLAIR
60501,"SUMMIT ARGO, IL",SUMMIT ARGO,IL,COOK
62466,"SUMNER, IL",SUMNER,IL,LAWRENCE
62373,"SUTTER, IL",SUTTER,IL,HANCOCK
60178,"SYCAMORE, IL",SYCAMORE,IL,DEKALB
61482,"TABLE GROVE, IL",TABLE GROVE,IL,FULTON
62688,"TALLULA, IL",TALLULA,IL,MENARD
62888,"TAMAROA, IL",TAMAROA,IL,PERRY
62988,"TAMMS, IL",TAMMS,IL,ALEXANDER
61283,"TAMPICO, IL",TAMPICO,IL,WHITESIDE
61284,"TAYLOR RIDGE, IL",TAYLOR RIDGE,IL,ROCK ISLAND
62089,"TAYLOR SPRINGS, IL",TAYLOR SPRINGS,IL,MONTGOMERY
62568,"TAYLORVILLE, IL",TAYLORVILLE,IL,CHRISTIAN
60082,"TECHNY, IL",TECHNY,IL,COOK
62374,"TENNESSEE, IL",TENNESSEE,IL,MCDONOUGH
62467,"TEUTOPOLIS, IL",TEUTOPOLIS,IL,EFFINGHAM
62889,"TEXICO, IL",TEXICO,IL,JEFFERSON
60968,"THAWVILLE, IL",THAWVILLE,IL,IROQUOIS
62689,"THAYER, IL",THAYER,IL,SANGAMON
62990,"THEBES, IL",THEBES,IL,ALEXANDER
61878,"THOMASBORO, IL",THOMASBORO,IL,CHAMPAIGN
62890,"THOMPSONVILLE, IL",THOMPSONVILLE,IL,FRANKLIN
61285,"THOMSON, IL",THOMSON,IL,CARROLL
60476,"THORNTON, IL",THORNTON,IL,COOK
62292,"TILDEN, IL",TILDEN,IL,RANDOLPH
61833,"TILTON, IL",TILTON,IL,VERMILION
62375,"TIMEWELL, IL",TIMEWELL,IL,BROWN
60477,"TINLEY PARK, IL",TINLEY PARK,IL,COOK
60487,"TINLEY PARK, IL",TINLEY PARK,IL,COOK
61368,"TISKILWA, IL",TISKILWA,IL,BUREAU
62468,"TOLEDO, IL",TOLEDO,IL,CUMBERLAND
61880,"TOLONO, IL",TOLONO,IL,CHAMPAIGN
61369,"TOLUCA, IL",TOLUCA,IL,MARSHALL
61370,"TONICA, IL",TONICA,IL,LA SALLE
61567,"TOPEKA, IL",TOPEKA,IL,MASON
61483,"TOULON, IL",TOULON,IL,STARK
62570,"TOVEY, IL",TOVEY,IL,CHRISTIAN
61776,"TOWANDA, IL",TOWANDA,IL,MCLEAN
62571,"TOWER HILL, IL",TOWER HILL,IL,SHELBY
61568,"TREMONT, IL",TREMONT,IL,TAZEWELL
62293,"TRENTON, IL",TRENTON,IL,CLINTON
62469,"TRILLA, IL",TRILLA,IL,COLES
61371,"TRIUMPH, IL",TRIUMPH,IL,LA SALLE
61569,"TRIVOLI, IL",TRIVOLI,IL,PEORIA
62294,"TROY, IL",TROY,IL,MADISON
61372,"TROY GROVE, IL",TROY GROVE,IL,LA SALLE
61953,"TUSCOLA, IL",TUSCOLA,IL,DOUGLAS
62992,"ULLIN, IL",ULLIN,IL,PULASKI
60180,"UNION, IL",UNION,IL,MCHENRY
60969,"UNION HILL, IL",UNION HILL,IL,KANKAKEE
60484,"UNIVERSITY PARK, IL",UNIVERSITY PARK,IL,WILL
61801,"URBANA, IL",URBANA,IL,CHAMPAIGN
61802,"URBANA, IL",URBANA,IL,CHAMPAIGN
61803,"URBANA, IL",URBANA,IL,CHAMPAIGN
62376,"URSA, IL",URSA,IL,ADAMS
61373,"UTICA, IL",UTICA,IL,LA SALLE
62891,"VALIER, IL",VALIER,IL,FRANKLIN
62295,"VALMEYER, IL",VALMEYER,IL,MONROE
61374,"VAN ORIN, IL",VAN ORIN,IL,BUREAU
62471,"VANDALIA, IL",VANDALIA,IL,FAYETTE
61375,"VARNA, IL",VARNA,IL,MARSHALL
62090,"VENICE, IL",VENICE,IL,MADISON
62994,"VERGENNES, IL",VERGENNES,IL,JACKSON
61955,"VERMILION, IL",VERMILION,IL,EDGAR
61484,"VERMONT, IL",VERMONT,IL,FULTON
62892,"VERNON, IL",VERNON,IL,MARION
60061,"VERNON HILLS, IL",VERNON HILLS,IL,LAKE
60479,"VERONA, IL",VERONA,IL,GRUNDY
62378,"VERSAILLES, IL",VERSAILLES,IL,BROWN
61485,"VICTORIA, IL",VICTORIA,IL,KNOX
62995,"VIENNA, IL",VIENNA,IL,JOHNSON
61956,"VILLA GROVE, IL",VILLA GROVE,IL,DOUGLAS
60181,"VILLA PARK, IL",VILLA PARK,IL,DUPAGE
62996,"VILLA RIDGE, IL",VILLA RIDGE,IL,PULASKI
61486,"VIOLA, IL",VIOLA,IL,MERCER
62690,"VIRDEN, IL",VIRDEN,IL,MACOUPIN
62691,"VIRGINIA, IL",VIRGINIA,IL,CASS
60083,"WADSWORTH, IL",WADSWORTH,IL,LAKE
62572,"WAGGONER, IL",WAGGONER,IL,MONTGOMERY
61376,"WALNUT, IL",WALNUT,IL,BUREAU
62893,"WALNUT HILL, IL",WALNUT HILL,IL,MARION
62297,"WALSH, IL",WALSH,IL,RANDOLPH
62091,"WALSHVILLE, IL",WALSHVILLE,IL,MONTGOMERY
62894,"WALTONVILLE, IL",WALTONVILLE,IL,JEFFERSON
61777,"WAPELLA, IL",WAPELLA,IL,DEWITT
61087,"WARREN, IL",WARREN,IL,JO DAVIESS
62573,"WARRENSBURG, IL",WARRENSBURG,IL,MACON
60555,"WARRENVILLE, IL",WARRENVILLE,IL,DUPAGE
62379,"WARSAW, IL",WARSAW,IL,HANCOCK
60183,"WASCO, IL",WASCO,IL,KANE
61570,"WASHBURN, IL",WASHBURN,IL,MARSHALL
61571,"WASHINGTON, IL",WASHINGTON,IL,TAZEWELL
61488,"WATAGA, IL",WATAGA,IL,KNOX
62298,"WATERLOO, IL",WATERLOO,IL,MONROE
60556,"WATERMAN, IL",WATERMAN,IL,DEKALB
60970,"WATSEKA, IL",WATSEKA,IL,IROQUOIS
62473,"WATSON, IL",WATSON,IL,EFFINGHAM
60084,"WAUCONDA, IL",WAUCONDA,IL,LAKE
60079,"WAUKEGAN, IL",WAUKEGAN,IL,LAKE
60085,"WAUKEGAN, IL",WAUKEGAN,IL,LAKE
60087,"WAUKEGAN, IL",WAUKEGAN,IL,LAKE
62692,"WAVERLY, IL",WAVERLY,IL,MORGAN
60184,"WAYNE, IL",WAYNE,IL,DUPAGE
62895,"WAYNE CITY, IL",WAYNE CITY,IL,WAYNE
61778,"WAYNESVILLE, IL",WAYNESVILLE,IL,DEWITT
60557,"WEDRON, IL",WEDRON,IL,LA SALLE
61882,"WELDON, IL",WELDON,IL,DEWITT
60973,"WELLINGTON, IL",WELLINGTON,IL,IROQUOIS
61377,"WENONA, IL",WENONA,IL,MARSHALL
61378,"WEST BROOKLYN, IL",WEST BROOKLYN,IL,LEE
60185,"WEST CHICAGO, IL",WEST CHICAGO,IL,DUPAGE
60186,"WEST CHICAGO, IL",WEST CHICAGO,IL,DUPAGE
62896,"WEST FRANKFORT, IL",WEST FRANKFORT,IL,FRANKLIN
62475,"WEST LIBERTY, IL",WEST LIBERTY,IL,JASPER
62380,"WEST POINT, IL",WEST POINT,IL,HANCOCK
62476,"WEST SALEM, IL",WEST SALEM,IL,EDWARDS
62477,"WEST UNION, IL",WEST UNION,IL,CLARK
62478,"WEST YORK, IL",WEST YORK,IL,CRAWFORD
60154,"WESTCHESTER, IL",WESTCHESTER,IL,COOK
60558,"WESTERN SPRINGS, IL",WESTERN SPRINGS,IL,COOK
62474,"WESTFIELD, IL",WESTFIELD,IL,CLARK
60559,"WESTMONT, IL",WESTMONT,IL,DUPAGE
61883,"WESTVILLE, IL",WESTVILLE,IL,VERMILION
60187,"WHEATON, IL",WHEATON,IL,DUPAGE
60189,"WHEATON, IL",WHEATON,IL,DUPAGE
62479,"WHEELER, IL",WHEELER,IL,JASPER
60090,"WHEELING, IL",WHEELING,IL,COOK
62092,"WHITE HALL, IL",WHITE HALL,IL,GREENE
61884,"WHITE HEATH, IL",WHITE HEATH,IL,PIATT
62897,"WHITTINGTON, IL",WHITTINGTON,IL,FRANKLIN
61489,"WILLIAMSFIELD, IL",WILLIAMSFIELD,IL,KNOX
62693,"WILLIAMSVILLE, IL",WILLIAMSVILLE,IL,SANGAMON
62997,"WILLISVILLE, IL",WILLISVILLE,IL,PERRY
62480,"WILLOW HILL, IL",WILLOW HILL,IL,JASPER
60480,"WILLOW SPRINGS, IL",WILLOW SPRINGS,IL,COOK
60527,"WILLOWBROOK, IL",WILLOWBROOK,IL,DUPAGE
60091,"WILMETTE, IL",WILMETTE,IL,COOK
60481,"WILMINGTON, IL",WILMINGTON,IL,WILL
62093,"WILSONVILLE, IL",WILSONVILLE,IL,MACOUPIN
62694,"WINCHESTER, IL",WINCHESTER,IL,SCOTT
61957,"WINDSOR, IL",WINDSOR,IL,SHELBY
60190,"WINFIELD, IL",WINFIELD,IL,DUPAGE
61088,"WINNEBAGO, IL",WINNEBAGO,IL,WINNEBAGO
60093,"WINNETKA, IL",WINNETKA,IL,COOK
61089,"WINSLOW, IL",WINSLOW,IL,STEPHENSON
60096,"WINTHROP HARBOR, IL",WINTHROP HARBOR,IL,LAKE
62094,"WITT, IL",WITT,IL,MONTGOMERY
62998,"WOLF LAKE, IL",WOLF LAKE,IL,UNION
60097,"WONDER LAKE, IL",WONDER LAKE,IL,MCHENRY
60191,"WOOD DALE, IL",WOOD DALE,IL,DUPAGE
62095,"WOOD RIVER, IL",WOOD RIVER,IL,MADISON
61490,"WOODHULL, IL",WOODHULL,IL,HENRY
62898,"WOODLAWN, IL",WOODLAWN,IL,JEFFERSON
60517,"WOODRIDGE, IL",WOODRIDGE,IL,DUPAGE
62695,"WOODSON, IL",WOODSON,IL,MORGAN
60098,"WOODSTOCK, IL",WOODSTOCK,IL,MCHENRY
61091,"WOOSUNG, IL",WOOSUNG,IL,OGLE
62097,"WORDEN, IL",WORDEN,IL,MADISON
60482,"WORTH, IL",WORTH,IL,COOK
62098,"WRIGHTS, IL",WRIGHTS,IL,GREENE
61379,"WYANET, IL",WYANET,IL,BUREAU
61491,"WYOMING, IL",WYOMING,IL,STARK
62899,"XENIA, IL",XENIA,IL,CLAY
62481,"YALE, IL",YALE,IL,JASPER
61572,"YATES CITY, IL",YATES CITY,IL,KNOX
60560,"YORKVILLE, IL",YORKVILLE,IL,KENDALL
62999,"ZEIGLER, IL",ZEIGLER,IL,FRANKLIN
60099,"ZION, IL",ZION,IL,LAKE
,,,,
,,,,
"For more information, kindly visit: www.downloadexcelfiles.com",,,,
